{"type":"FeatureCollection","features":[{"type":"Feature","properties":{"Name":0.13155091782027326,"Field_1":0.131550917820273,"SHAPE":"PolyLine"},"geometry":{"coordinates":[[47.989933,29.3282928,0],[47.9931256,29.3211626,0],[47.974715,29.3186086,0],[47.9806745,29.2998787,0],[47.9854634,29.2841286,0],[47.9884865,29.2606329,0],[47.9892945,29.2540587,0],[47.9874555,29.2514706,0],[47.9851398,29.2505851,0],[47.9828242,29.2509257,0],[47.972676,29.2526284,0],[47.9693598,29.2527678,0],[47.9677722,29.2516068,0],[47.9668186,29.2494273,0],[47.9683851,29.2461581,0],[47.9700879,29.2452727,0],[47.9717906,29.2419354,0],[47.971416,29.2384746,0]],"type":"LineString"}}]}