{"type":"FeatureCollection","features":[{"type":"Feature","properties":{"Name":129.1671293137255,"Field_1":129.167129313726,"SHAPE":"PolyLine"},"geometry":{"coordinates":[[47.971416,29.2384746,0],[47.9675849,29.2368783,0],[47.9654143,29.2322592,0],[47.9662014,29.2304931,0],[47.9641794,29.229961,0],[47.9656693,29.2265556,0],[47.9497064,29.220064,0],[47.9638602,29.1925013,0],[47.9622639,29.1900537,0],[47.9418313,29.2278326,0],[28.7244678,41.2985858,0],[28.7248935,41.2670856,0],[28.7326621,41.2669792,0],[28.7328749,41.2693204,0],[28.7392601,41.2695332,0],[28.7389408,41.2660214,0],[28.7405371,41.265915,0],[28.7405371,41.2705974,0],[28.7304343,41.2703786,0],[28.7304273,41.2685755,0],[28.7276663,41.2685157,0],[28.7272347,41.2989051,0],[-77.4593515,38.9703171,0],[-77.4598701,38.9393134,0],[-77.4559799,38.9393118,0],[-77.4559799,38.9454579,0],[-77.4497902,38.9454579,0]],"type":"LineString"}}]}