{"type":"FeatureCollection","features":[{"type":"Feature","properties":{"Name":0.006364565146034447,"Field_1":0.00636456514603445,"SHAPE":"PolyLine"},"geometry":{"coordinates":[[-77.4274184,38.9624065,0],[-77.4270124,38.9624208,0],[-77.4260103,38.9621083,0],[-77.4254009,38.9615542,0],[-77.4254747,38.9608524,0],[-77.4261027,38.9605385,0],[-77.4266752,38.9605939,0],[-77.4272293,38.9610371,0],[-77.4274104,38.9617348,0],[-77.4274184,38.9624065,0]],"type":"LineString"}},{"type":"Feature","properties":{"Name":0.5740374493394294,"Field_1":0.574037449339429,"SHAPE":"PolyLine"},"geometry":{"coordinates":[[-77.439535,39.400312,0],[-77.4403345,39.3994309,0],[-77.4406485,39.3990859,0],[-77.4417775,39.3979159,0],[-77.4430155,39.3967879,0],[-77.4441505,39.3957829,0],[-77.4488195,39.3918089,0],[-77.4493155,39.3913869,0],[-77.4513565,39.3896629,0],[-77.4517245,39.3893599,0],[-77.4521995,39.3889769,0],[-77.4526045,39.3886639,0],[-77.4531025,39.3883059,0],[-77.4532045,39.3882339,0],[-77.4535295,39.3880069,0],[-77.4539475,39.3877309,0],[-77.4544495,39.3874169,0],[-77.4548805,39.3871699,0],[-77.4554825,39.3868319,0],[-77.4568225,39.3861439,0],[-77.4635775,39.3828259,0],[-77.4718455,39.3787819,0],[-77.4794965,39.3750479,0],[-77.4797675,39.3749159,0],[-77.4814485,39.3740989,0],[-77.4822785,39.3737339,0],[-77.4830105,39.3734549,0],[-77.4838015,39.3731809,0],[-77.4839315,39.3731359,0],[-77.4853025,39.3727359,0],[-77.4865225,39.3723889,0],[-77.4878765,39.3720219,0],[-77.4941205,39.3703359,0],[-77.4952415,39.3700339,0],[-77.4957525,39.3698889,0],[-77.4961875,39.3697259,0],[-77.4962315,39.3697079,0],[-77.4969405,39.3694119,0],[-77.4973265,39.3692499,0],[-77.4983135,39.3686779,0],[-77.5006655,39.3671059,0],[-77.5015835,39.3664669,0],[-77.5023885,39.3658159,0],[-77.5027165,39.3655009,0],[-77.5030375,39.3651609,0],[-77.5033005,39.3648219,0],[-77.5035325,39.3645019,0],[-77.5035685,39.3644399,0],[-77.5037395,39.3641439,0],[-77.5038825,39.3638559,0],[-77.5040175,39.3635479,0],[-77.5041205,39.3632529,0],[-77.5042155,39.3629399,0],[-77.5042935,39.3626449,0],[-77.5043515,39.3620939,0],[-77.5048105,39.3575879,0],[-77.5048105,39.3575019,0],[-77.5048105,39.3574439,0],[-77.5048155,39.3572449,0],[-77.5048305,39.3566829,0],[-77.5048495,39.3560079,0],[-77.5048665,39.3554369,0],[-77.5048685,39.3553739,0],[-77.5049255,39.3546609,0],[-77.5050115,39.3535909,0],[-77.5052115,39.3523469,0],[-77.5052825,39.3519069,0],[-77.5054075,39.3513469,0],[-77.5055665,39.3506389,0],[-77.5056715,39.3501729,0],[-77.5057335,39.3498979,0],[-77.5059645,39.3489039,0],[-77.5104305,39.3297299,0],[-77.5111035,39.3268479,0],[-77.5120295,39.3228879,0],[-77.5128235,39.3194929,0],[-77.5129865,39.3187979,0],[-77.5150865,39.3098498,0],[-77.5154855,39.3087588,0],[-77.5155815,39.3085258,0],[-77.5156915,39.3082628,0],[-77.5159835,39.3076718,0],[-77.5160085,39.3076228,0],[-77.5163665,39.3069828,0],[-77.5166855,39.3064678,0],[-77.5169645,39.3060538,0],[-77.5173395,39.3055238,0],[-77.5182805,39.3042888,0],[-77.5217305,39.2997678,0],[-77.5234125,39.2975638,0],[-77.5302535,39.2876498,0],[-77.5362435,39.2823188,0],[-77.5403925,39.2767438,0],[-77.5463275,39.2723108,0],[-77.5441345,39.2588608,0],[-77.5438365,39.2573558,0],[-77.5437815,39.2571618,0],[-77.5437255,39.2569898,0],[-77.5436545,39.2568218,0],[-77.5435755,39.2566908,0],[-77.5435055,39.2565978,0],[-77.5434255,39.2565118,0],[-77.5433055,39.2564198,0],[-77.5430675,39.2562668,0],[-77.5427975,39.2560998,0],[-77.5347005,39.2524218,0],[-77.5303585,39.2468648,0],[-77.5324295,39.2352328,0],[-77.5347365,39.2153228,0],[-77.5356545,39.2119018,0],[-77.5357645,39.2114828,0],[-77.5358335,39.2111898,0],[-77.5359165,39.2108368,0],[-77.5374215,39.2030448,0],[-77.5375175,39.2025208,0],[-77.5377175,39.2013048,0],[-77.5380405,39.1990118,0],[-77.5381955,39.1978438,0],[-77.5382355,39.1972368,0],[-77.5382145,39.1968828,0],[-77.5382125,39.1968578,0],[-77.5381195,39.1960888,0],[-77.5380215,39.1954768,0],[-77.5379005,39.1949998,0],[-77.5374865,39.1935128,0],[-77.5372575,39.1928898,0],[-77.5371755,39.1926948,0],[-77.5367215,39.1916248,0],[-77.5365325,39.1911898,0],[-77.5362305,39.1905418,0],[-77.5360265,39.1900348,0],[-77.5359485,39.1898308,0],[-77.5358265,39.1894648,0],[-77.5353685,39.1879948,0],[-77.5352505,39.1875658,0],[-77.5352085,39.1873938,0],[-77.5351355,39.1869868,0],[-77.5350595,39.1864578,0],[-77.5350285,39.1859338,0],[-77.5350275,39.1856368,0],[-77.5350635,39.1839038,0],[-77.5351085,39.1824258,0],[-77.5352105,39.1818078,0],[-77.5352645,39.1816028,0],[-77.5366165,39.1780408,0],[-77.5363205,39.1701118,0],[-77.5361915,39.1689818,0],[-77.5361575,39.1685038,0],[-77.5361195,39.1673778,0],[-77.5360475,39.1651158,0],[-77.5360615,39.1642898,0],[-77.5361025,39.1640078,0],[-77.5361495,39.1637498,0],[-77.5362465,39.1633248,0],[-77.5363755,39.1628308,0],[-77.5373175,39.1602358,0],[-77.5385645,39.1568018,0],[-77.5396285,39.1540788,0],[-77.5415415,39.1492718,0],[-77.5415615,39.1492248,0],[-77.5416995,39.1489058,0],[-77.5421585,39.1478528,0],[-77.5424675,39.1472978,0],[-77.5426865,39.1469068,0],[-77.5449645,39.1432558,0],[-77.5460125,39.1415278,0],[-77.5467205,39.1403568,0],[-77.5469275,39.1398908,0],[-77.5471455,39.1392998,0],[-77.5472555,39.1389428,0],[-77.5473155,39.1386748,0],[-77.5473555,39.1383648,0],[-77.5473855,39.1378078,0],[-77.5473295,39.1372668,0],[-77.5471995,39.1366088,0],[-77.5471235,39.1363028,0],[-77.5469625,39.1358848,0],[-77.5457155,39.1329958,0],[-77.5444755,39.1301448,0],[-77.5431805,39.1271958,0],[-77.5398555,39.1196058,0],[-77.5381445,39.1156388,0],[-77.5378195,39.1146708,0],[-77.5377565,39.1144328,0],[-77.5377095,39.1141638,0],[-77.5376635,39.1137428,0],[-77.5376525,39.1136188,0],[-77.5376325,39.1133348,0],[-77.5376445,39.1128528,0],[-77.5376955,39.1123408,0],[-77.5377725,39.1118838,0],[-77.5378555,39.1115308,0],[-77.5380165,39.1110248,0],[-77.5381305,39.1106858,0],[-77.5382515,39.1103678,0],[-77.5383665,39.1101018,0],[-77.5384725,39.1099018,0],[-77.5385315,39.1098128,0],[-77.5395118,39.1083426,0],[-77.5417401,39.1064857,0],[-77.5421114,39.1055201,0],[-77.5421723,39.1045663,0],[-77.5420559,39.1036074,0],[-77.5416713,39.1031277,0],[-77.5409835,39.1026028,0],[-77.5396565,39.1018388,0],[-77.5391385,39.1015348,0],[-77.5356155,39.0994568,0],[-77.5292165,39.0956658,0],[-77.5288025,39.0954088,0],[-77.5280555,39.0948928,0],[-77.5270405,39.0940378,0],[-77.5264795,39.0935328,0],[-77.5262115,39.0933068,0],[-77.5254905,39.0927388,0],[-77.5250665,39.0924368,0],[-77.5247535,39.0922358,0],[-77.5240875,39.0918398,0],[-77.5232955,39.0914228,0],[-77.5229655,39.0912618,0],[-77.5228295,39.0911958,0],[-77.5227425,39.0911568,0],[-77.5153965,39.0879908,0],[-77.5125835,39.0867798,0],[-77.5115985,39.0863328,0],[-77.5104525,39.0857998,0],[-77.5099985,39.0855818,0],[-77.5090075,39.0851048,0],[-77.5051985,39.0832468,0],[-77.4847434,39.0732558,0],[-77.4607104,39.0614888,0],[-77.4350485,39.0488106,0],[-77.4322317,39.0474022,0],[-77.4316281,39.0470501,0],[-77.4308709,39.0464965,0],[-77.4306624,39.0454328,0],[-77.4308041,39.0436861,0],[-77.4312224,39.0321678,0],[-77.4312524,39.0278928,0],[-77.4312784,39.0243958,0],[-77.4313824,39.0214698,0],[-77.4314094,39.0211638,0],[-77.4314444,39.0207878,0],[-77.4315114,39.0202338,0],[-77.4316264,39.0194308,0],[-77.4318034,39.0184878,0],[-77.4326904,39.0141598,0],[-77.4330094,39.0127088,0],[-77.4333904,39.0109398,0],[-77.4340164,39.0079538,0],[-77.4342954,39.0066208,0],[-77.4344944,39.0056148,0],[-77.4345624,39.0052678,0],[-77.4345804,39.0051758,0],[-77.4348174,39.0039448,0],[-77.4348764,39.0034408,0],[-77.4349134,39.0030308,0],[-77.4349644,39.0024608,0],[-77.4349484,39.0021268,0],[-77.4349044,39.0012158,0],[-77.4348184,39.0003888,0],[-77.4345814,38.9992148,0],[-77.4341454,38.9977808,0],[-77.4338144,38.9967678,0],[-77.4334284,38.9955868,0],[-77.4312564,38.9890248,0],[-77.4289414,38.9795128,0],[-77.4287934,38.9664758,0],[-77.4274184,38.9624065,0]],"type":"LineString"}},{"type":"Feature","properties":{"Name":0.026740686918022668,"Field_1":0.0267406869180227,"SHAPE":"PolyLine"},"geometry":{"coordinates":[[-77.439535,39.400312,0],[-77.437821,39.3992769,0],[-77.4352326,39.3984491,0],[-77.4323591,39.3986943,0],[-77.4299905,39.399701,0],[-77.4290838,39.4006899,0],[-77.4285424,39.4018219,0],[-77.4288124,39.4020729,0],[-77.4304144,39.4035539,0],[-77.4311274,39.4041879,0],[-77.4327961,39.4049572,0],[-77.4357144,39.4044878,0],[-77.4361625,39.4041399,0],[-77.4363885,39.4038979,0],[-77.4379655,39.4021109,0],[-77.439535,39.400312,0]],"type":"LineString"}},{"type":"Feature","properties":{"Name":1.2554552021306347,"Field_1":1.25545520213063,"SHAPE":"PolyLine"},"geometry":{"coordinates":[[-78.2414025,39.9906453,0],[-78.2418088,39.9891075,0],[-78.2425634,39.9869191,0],[-78.2440867,39.983213,0],[-78.2442377,39.982457,0],[-78.2444017,39.981543,0],[-78.2473817,39.964895,0],[-78.2474597,39.964307,0],[-78.2474697,39.96367,0],[-78.2473987,39.9629049,0],[-78.2471757,39.9612649,0],[-78.2470857,39.9606509,0],[-78.2468027,39.9588979,0],[-78.2467147,39.9585779,0],[-78.2465927,39.9582449,0],[-78.2464417,39.9578949,0],[-78.2462987,39.9576229,0],[-78.2460967,39.9573209,0],[-78.2459117,39.9570689,0],[-78.2456957,39.9568079,0],[-78.2454167,39.9565199,0],[-78.2451687,39.9562939,0],[-78.2449237,39.9560909,0],[-78.2447157,39.9559409,0],[-78.2444647,39.9557769,0],[-78.2434917,39.9551989,0],[-78.2362137,39.9509499,0],[-78.2357877,39.9507069,0],[-78.2353447,39.9504809,0],[-78.2346247,39.9501879,0],[-78.2334567,39.9497669,0],[-78.2321467,39.9492939,0],[-78.2316757,39.9491029,0],[-78.2313097,39.9489279,0],[-78.2310157,39.9487699,0],[-78.2306097,39.9485159,0],[-78.2302307,39.9482399,0],[-78.2298847,39.9479439,0],[-78.2296827,39.9477389,0],[-78.2292527,39.9473009,0],[-78.2290297,39.9469149,0],[-78.2289417,39.9467619,0],[-78.2286617,39.9462059,0],[-78.2273937,39.9432069,0],[-78.2272877,39.9427509,0],[-78.2272447,39.9424649,0],[-78.2272197,39.9421459,0],[-78.2272207,39.9417989,0],[-78.2272217,39.9417769,0],[-78.2272517,39.9414329,0],[-78.2273247,39.9410569,0],[-78.2275637,39.9403009,0],[-78.2293607,39.9365569,0],[-78.2315197,39.9320979,0],[-78.2320667,39.9309819,0],[-78.2324027,39.9302379,0],[-78.2329117,39.9290489,0],[-78.2333027,39.9280119,0],[-78.2335267,39.9273369,0],[-78.2335787,39.9271769,0],[-78.2338357,39.9262899,0],[-78.2338837,39.9261239,0],[-78.2340387,39.9254919,0],[-78.2342857,39.9244209,0],[-78.2356417,39.9183829,0],[-78.2374637,39.9102619,0],[-78.2378057,39.9087369,0],[-78.2381107,39.9073959,0],[-78.2383697,39.9062589,0],[-78.2387287,39.9048509,0],[-78.2398037,39.9006409,0],[-78.2401987,39.8995809,0],[-78.2409287,39.8977319,0],[-78.2438267,39.8907569,0],[-78.2446327,39.8859549,0],[-78.2448147,39.8817259,0],[-78.2529887,39.8723129,0],[-78.2532947,39.8719789,0],[-78.2537887,39.8714949,0],[-78.2541467,39.8711849,0],[-78.2545277,39.8708879,0],[-78.2584417,39.8686529,0],[-78.2589457,39.8683449,0],[-78.2594027,39.8680549,0],[-78.2600407,39.8675989,0],[-78.2634447,39.8642429,0],[-78.2642217,39.8633489,0],[-78.2647027,39.8627489,0],[-78.2652027,39.8620699,0],[-78.2658207,39.8611409,0],[-78.2714747,39.8519569,0],[-78.2723157,39.8505229,0],[-78.2726497,39.8498979,0],[-78.2731627,39.8488489,0],[-78.2752227,39.8442159,0],[-78.2755487,39.8433669,0],[-78.2758857,39.8422789,0],[-78.2760967,39.8413889,0],[-78.2761807,39.8409389,0],[-78.2762797,39.8402609,0],[-78.2763617,39.8393519,0],[-78.2763887,39.8386659,0],[-78.2763887,39.8382109,0],[-78.2763227,39.8370629,0],[-78.2762417,39.8363699,0],[-78.2761687,39.8359049,0],[-78.2760797,39.8354389,0],[-78.2759137,39.8347389,0],[-78.2750817,39.8317409,0],[-78.2748637,39.8309529,0],[-78.2730417,39.8243459,0],[-78.2719987,39.8205569,0],[-78.2719057,39.8201219,0],[-78.2716127,39.8183159,0],[-78.2715777,39.8176179,0],[-78.2715847,39.8169769,0],[-78.2716307,39.8162429,0],[-78.2717327,39.8154409,0],[-78.2719007,39.8145939,0],[-78.2720717,39.8139429,0],[-78.2722787,39.8132959,0],[-78.2728417,39.8117969,0],[-78.2729697,39.8113619,0],[-78.2730447,39.8109189,0],[-78.2730647,39.8104869,0],[-78.2730527,39.8100929,0],[-78.2730097,39.8097589,0],[-78.2729057,39.8093139,0],[-78.2728197,39.8090379,0],[-78.2726747,39.8086899,0],[-78.2723437,39.8080809,0],[-78.2721597,39.8078219,0],[-78.2717657,39.8073569,0],[-78.2713757,39.8069799,0],[-78.2708967,39.8066029,0],[-78.2705317,39.8063599,0],[-78.2702957,39.8062239,0],[-78.2701387,39.8061339,0],[-78.2697047,39.8059239,0],[-78.2687877,39.8055709,0],[-78.2582867,39.8018279,0],[-78.2541647,39.8003669,0],[-78.2528617,39.7999309,0],[-78.2520387,39.7996969,0],[-78.2510227,39.7994749,0],[-78.2496417,39.7991739,0],[-78.2493927,39.7991369,0],[-78.2488037,39.7990499,0],[-78.2484637,39.7989999,0],[-78.2460427,39.7987519,0],[-78.2341757,39.7966369,0],[-78.2231037,39.7947239,0],[-78.2165637,39.7939859,0],[-78.2159927,39.7938369,0],[-78.2154017,39.7936439,0],[-78.2150697,39.7935149,0],[-78.2147177,39.7933559,0],[-78.2138707,39.7928689,0],[-78.2132857,39.7924179,0],[-78.2130197,39.7921729,0],[-78.2128967,39.7920399,0],[-78.2126417,39.7917499,0],[-78.2123987,39.7914269,0],[-78.2122847,39.7912559,0],[-78.2120817,39.7908889,0],[-78.2119067,39.7904979,0],[-78.2117637,39.7900849,0],[-78.2110067,39.7872929,0],[-78.2050447,39.7814139,0],[-78.2046157,39.7811549,0],[-78.2042397,39.7808559,0],[-78.2039177,39.7805219,0],[-78.2036397,39.7801669,0],[-78.2011967,39.7767829,0],[-78.2009797,39.7764819,0],[-78.2005957,39.7759039,0],[-78.2003507,39.7754249,0],[-78.2001997,39.7750259,0],[-78.2001397,39.7748209,0],[-78.2000507,39.7744019,0],[-78.2000227,39.7741879,0],[-78.2,39.7737619,0],[-78.2000457,39.7731329,0],[-78.2006417,39.7685519,0],[-78.2006687,39.7680979,0],[-78.2006577,39.7676429,0],[-78.2006077,39.7671909,0],[-78.2005667,39.7669659,0],[-78.2003757,39.7662979,0],[-78.2002047,39.7658629,0],[-78.1998647,39.7652359,0],[-78.1995927,39.7648349,0],[-78.1992877,39.7644529,0],[-78.1987657,39.7639189,0],[-78.1981847,39.7634319,0],[-78.1970537,39.7626139,0],[-78.1945877,39.7608299,0],[-78.1915067,39.7586009,0],[-78.1867637,39.7551689,0],[-78.1859637,39.7545539,0],[-78.1855837,39.7542289,0],[-78.1849967,39.7536919,0],[-78.1846967,39.7533719,0],[-78.1840577,39.7526399,0],[-78.1834867,39.7518739,0],[-78.1832257,39.7514799,0],[-78.1829857,39.7510769,0],[-78.1825557,39.7502559,0],[-78.1824897,39.7501029,0],[-78.1822847,39.7496239,0],[-78.1820127,39.7488319,0],[-78.1818037,39.7479589,0],[-78.1817497,39.7477299,0],[-78.1816807,39.7473199,0],[-78.1816147,39.7466919,0],[-78.1813907,39.7429219,0],[-78.1813767,39.7413399,0],[-78.1813887,39.7409739,0],[-78.1814147,39.7402139,0],[-78.1815007,39.7391269,0],[-78.1817107,39.7370989,0],[-78.1826847,39.7283089,0],[-78.1827737,39.7275999,0],[-78.1828667,39.7268769,0],[-78.1829287,39.7264869,0],[-78.1830717,39.7258869,0],[-78.1832067,39.7254449,0],[-78.1845997,39.7224079,0],[-78.1860517,39.7201819,0],[-78.1864227,39.7196459,0],[-78.1866327,39.7191399,0],[-78.1869617,39.7182759,0],[-78.1871627,39.7174479,0],[-78.1872727,39.7168279,0],[-78.1873027,39.7162179,0],[-78.1873227,39.7153679,0],[-78.1872827,39.7147479,0],[-78.1871527,39.7141479,0],[-78.1869627,39.7134279,0],[-78.1867227,39.7125679,0],[-78.1863377,39.7116919,0],[-78.1860547,39.7112119,0],[-78.1854767,39.7104499,0],[-78.1850737,39.7099599,0],[-78.1849207,39.7097739,0],[-78.1848827,39.7097279,0],[-78.1842527,39.7091179,0],[-78.1836027,39.7085979,0],[-78.1833437,39.7084129,0],[-78.1824827,39.7077979,0],[-78.1815927,39.7072279,0],[-78.1807027,39.7067379,0],[-78.1806187,39.7067029,0],[-78.1804597,39.7066389,0],[-78.1795787,39.7063199,0],[-78.1793827,39.7062509,0],[-78.1790977,39.7061629,0],[-78.1729057,39.7044189,0],[-78.1718917,39.7041349,0],[-78.1705007,39.7037589,0],[-78.1691137,39.7034719,0],[-78.1681217,39.7033029,0],[-78.1626697,39.7025319,0],[-78.1601117,39.7021779,0],[-78.1591427,39.7020389,0],[-78.1584707,39.7018819,0],[-78.1580177,39.7017609,0],[-78.1576017,39.7016129,0],[-78.1571597,39.7014419,0],[-78.1565767,39.7011519,0],[-78.1560057,39.7008089,0],[-78.1554197,39.7003279,0],[-78.1547817,39.6997189,0],[-78.1541327,39.6990679,0],[-78.1538997,39.6987839,0],[-78.1536807,39.6985339,0],[-78.1529027,39.6976479,0],[-78.1522327,39.6971179,0],[-78.1515227,39.6966979,0],[-78.1508427,39.6963879,0],[-78.1464827,39.6947479,0],[-78.1454627,39.6943779,0],[-78.1433327,39.6936879,0],[-78.1415827,39.6932179,0],[-78.1404227,39.6929579,0],[-78.1388627,39.6926779,0],[-78.1379507,39.6925429,0],[-78.1266957,39.6897269,0],[-78.1204927,39.6883379,0],[-78.1122707,39.6869759,0],[-78.1051127,39.6857779,0],[-78.1042427,39.6855979,0],[-78.1035627,39.6854279,0],[-78.1030047,39.6852769,0],[-78.1029727,39.6852679,0],[-78.1025427,39.6851379,0],[-78.1012157,39.6846519,0],[-78.0999267,39.6840679,0],[-78.0993737,39.6838089,0],[-78.0989747,39.6835869,0],[-78.0985837,39.6833509,0],[-78.0974907,39.6826859,0],[-78.0968367,39.6822329,0],[-78.0940077,39.6803539,0],[-78.0933837,39.6799519,0],[-78.0930367,39.6797299,0],[-78.0922357,39.6792239,0],[-78.0914157,39.6787329,0],[-78.0909467,39.6784559,0],[-78.0893217,39.6775219,0],[-78.0863087,39.6757919,0],[-78.0830417,39.6739429,0],[-78.0825097,39.6736579,0],[-78.0815997,39.6732199,0],[-78.0801267,39.6726849,0],[-78.0793257,39.6724669,0],[-78.0785427,39.6722499,0],[-78.0768337,39.6717709,0],[-78.0756327,39.6713679,0],[-78.0749727,39.6710779,0],[-78.0744627,39.6708279,0],[-78.0703227,39.6686779,0],[-78.0695727,39.6682379,0],[-78.0688417,39.6677769,0],[-78.0687327,39.6677079,0],[-78.0677127,39.6669479,0],[-78.0671927,39.6665579,0],[-78.0636727,39.6638379,0],[-78.0614427,39.6620779,0],[-78.0586027,39.6599079,0],[-78.0578927,39.6593879,0],[-78.0574827,39.6591179,0],[-78.0571327,39.6589079,0],[-78.0556627,39.6580279,0],[-78.0544227,39.6573479,0],[-78.0521827,39.6562169,0],[-78.0501827,39.6551979,0],[-78.0498827,39.6550079,0],[-78.0492927,39.6546179,0],[-78.0490147,39.6544169,0],[-78.0490027,39.6544079,0],[-78.0487327,39.6541879,0],[-78.0483027,39.6538079,0],[-78.0456427,39.6513979,0],[-78.0419327,39.6480179,0],[-78.0373227,39.6445479,0],[-78.0343227,39.6427919,0],[-78.0298627,39.6401779,0],[-78.0293327,39.6398279,0],[-78.0292997,39.6398039,0],[-78.0274547,39.6383629,0],[-78.0266626,39.6375859,0],[-78.0263106,39.6371869,0],[-78.0253036,39.6360799,0],[-78.0235806,39.6341969,0],[-78.0226066,39.6331429,0],[-78.0222836,39.6328039,0],[-78.0221386,39.6326619,0],[-78.0218586,39.6323989,0],[-78.0213776,39.6319839,0],[-78.0206876,39.6313969,0],[-78.0201776,39.6310099,0],[-78.0164436,39.6282629,0],[-78.0130656,39.6258619,0],[-78.0127626,39.6256819,0],[-78.0112766,39.6249469,0],[-78.0097126,39.6244079,0],[-78.0086426,39.6241179,0],[-78.0075026,39.6239079,0],[-78.0072926,39.6238749,0],[-78.0070526,39.6238379,0],[-78.0058726,39.6237279,0],[-78.0050626,39.6236879,0],[-78.0040826,39.6237079,0],[-78.0032926,39.6237679,0],[-78.0026926,39.6238279,0],[-78.0021426,39.6239079,0],[-78.0015926,39.6240079,0],[-78.0010726,39.6241079,0],[-78.0004526,39.6242579,0],[-77.9960596,39.6254269,0],[-77.9902326,39.6269779,0],[-77.9886726,39.6273379,0],[-77.9874826,39.6275479,0],[-77.9867226,39.6276579,0],[-77.9857826,39.6277579,0],[-77.9770436,39.6282539,0],[-77.9734526,39.6284479,0],[-77.9726226,39.6285079,0],[-77.9718126,39.6285779,0],[-77.9714426,39.6286179,0],[-77.9709226,39.6286979,0],[-77.9705126,39.6287679,0],[-77.9701626,39.6288479,0],[-77.9697626,39.6289579,0],[-77.9693726,39.6290779,0],[-77.9689826,39.6292079,0],[-77.9682726,39.6294879,0],[-77.9681166,39.6295589,0],[-77.9678826,39.6296679,0],[-77.9676226,39.6297979,0],[-77.9674526,39.6298879,0],[-77.9669226,39.6301979,0],[-77.9666126,39.6303979,0],[-77.9657426,39.6310569,0],[-77.9648726,39.6317179,0],[-77.9639256,39.6324289,0],[-77.9628626,39.6331779,0],[-77.9622126,39.6335979,0],[-77.9614826,39.6340379,0],[-77.9608426,39.6344179,0],[-77.9562326,39.6368579,0],[-77.9540026,39.6380279,0],[-77.9456926,39.6430979,0],[-77.9432326,39.6446679,0],[-77.9426626,39.6450279,0],[-77.9423226,39.6452279,0],[-77.9419026,39.6454479,0],[-77.9406226,39.6460379,0],[-77.9402526,39.6461979,0],[-77.9399326,39.6463279,0],[-77.9391926,39.6465879,0],[-77.9375226,39.6471379,0],[-77.9297526,39.6496579,0],[-77.9238426,39.6515379,0],[-77.9212826,39.6523479,0],[-77.9203926,39.6526079,0],[-77.9185026,39.6530629,0],[-77.9183426,39.6530879,0],[-77.9161726,39.6533479,0],[-77.9155126,39.6533879,0],[-77.9143226,39.6534479,0],[-77.9129126,39.6534279,0],[-77.9080126,39.6531479,0],[-77.8998926,39.6526579,0],[-77.8972076,39.6524849,0],[-77.8935326,39.6522579,0],[-77.8879126,39.6519179,0],[-77.8862366,39.6518169,0],[-77.8824226,39.6515879,0],[-77.8780826,39.6513279,0],[-77.8763226,39.6512479,0],[-77.8755926,39.6512279,0],[-77.8750026,39.6512179,0],[-77.8736346,39.6512299,0],[-77.8727726,39.6512379,0],[-77.8714196,39.6512619,0],[-77.8676626,39.6513279,0],[-77.8654236,39.6513489,0],[-77.8632386,39.6513469,0],[-77.8608826,39.6513129,0],[-77.8538626,39.6512109,0],[-77.8529046,39.6511839,0],[-77.8527546,39.6511749,0],[-77.8523136,39.6511439,0],[-77.8517926,39.6510929,0],[-77.8509316,39.6509719,0],[-77.8502396,39.6508599,0],[-77.8496786,39.6507589,0],[-77.8491586,39.6506579,0],[-77.8484266,39.6504969,0],[-77.8483196,39.6504699,0],[-77.8473956,39.6502349,0],[-77.8463436,39.6499129,0],[-77.8441596,39.6491279,0],[-77.8375996,39.6467229,0],[-77.8370396,39.6465119,0],[-77.8360276,39.6460989,0],[-77.8355266,39.6458579,0],[-77.8344756,39.6453159,0],[-77.8338146,39.6449339,0],[-77.8332336,39.6445819,0],[-77.8326836,39.6442109,0],[-77.8321126,39.6438089,0],[-77.8318036,39.6435819,0],[-77.8224616,39.6378129,0],[-77.8135526,39.6327379,0],[-77.8123236,39.6319139,0],[-77.8095826,39.6302979,0],[-77.8093826,39.6301979,0],[-77.8072316,39.6292609,0],[-77.7964216,39.6248089,0],[-77.7925826,39.6232379,0],[-77.7920826,39.6230179,0],[-77.7912526,39.6226279,0],[-77.7907726,39.6223719,0],[-77.7905026,39.6222279,0],[-77.7896926,39.6217279,0],[-77.7891326,39.6213379,0],[-77.7886036,39.6208839,0],[-77.7884936,39.6207869,0],[-77.7880826,39.6204229,0],[-77.7876546,39.6199579,0],[-77.7876216,39.6199209,0],[-77.7871756,39.6193739,0],[-77.7856126,39.6172179,0],[-77.7853426,39.6168279,0],[-77.7836076,39.6143009,0],[-77.7816626,39.6116079,0],[-77.7813926,39.6112679,0],[-77.7808626,39.6106379,0],[-77.7804626,39.6102479,0],[-77.7799026,39.6097279,0],[-77.7795826,39.6094679,0],[-77.7792026,39.6091779,0],[-77.7784026,39.6086479,0],[-77.7779726,39.6083779,0],[-77.7771926,39.6079679,0],[-77.7764926,39.6076379,0],[-77.7761926,39.6075179,0],[-77.7750226,39.6070979,0],[-77.7744526,39.6069279,0],[-77.7731476,39.6066089,0],[-77.7724586,39.6065189,0],[-77.7711296,39.6063979,0],[-77.7697666,39.6063639,0],[-77.7687836,39.6063859,0],[-77.7616876,39.6065299,0],[-77.7533326,39.6066979,0],[-77.7523326,39.6066779,0],[-77.7515326,39.6066379,0],[-77.7507426,39.6065879,0],[-77.7499026,39.6065079,0],[-77.7464926,39.6061479,0],[-77.7444726,39.6059079,0],[-77.7427126,39.6056979,0],[-77.7410926,39.6055279,0],[-77.7398726,39.6054379,0],[-77.7393926,39.6054079,0],[-77.7389626,39.6053879,0],[-77.7373426,39.6053479,0],[-77.7361326,39.6053479,0],[-77.7289526,39.6055979,0],[-77.7273326,39.6056579,0],[-77.7268226,39.6056679,0],[-77.7257926,39.6056879,0],[-77.7255926,39.6056879,0],[-77.7248326,39.6056579,0],[-77.7240126,39.6056079,0],[-77.7234426,39.6055679,0],[-77.7229726,39.6055279,0],[-77.7218826,39.6054179,0],[-77.7211526,39.6053279,0],[-77.7204226,39.6052279,0],[-77.7196726,39.6050979,0],[-77.7191226,39.6049979,0],[-77.7183426,39.6048379,0],[-77.7172126,39.6045679,0],[-77.7161826,39.6042879,0],[-77.7153426,39.6040379,0],[-77.7146226,39.6038079,0],[-77.7122425,39.6030079,0],[-77.7121725,39.6029819,0],[-77.7120535,39.6029369,0],[-77.7119605,39.6029019,0],[-77.7116825,39.6027979,0],[-77.7108525,39.6024979,0],[-77.7090525,39.6018579,0],[-77.7060725,39.6008079,0],[-77.7054325,39.6005979,0],[-77.7047425,39.6003879,0],[-77.7038625,39.6001379,0],[-77.7033285,39.6000099,0],[-77.7029425,39.5999179,0],[-77.7023715,39.5997929,0],[-77.7015425,39.5996579,0],[-77.6995945,39.5994399,0],[-77.6972195,39.5993389,0],[-77.6886785,39.5998319,0],[-77.6830585,39.6001619,0],[-77.6758085,39.6005769,0],[-77.6748725,39.6006229,0],[-77.6724285,39.6007329,0],[-77.6707565,39.6007549,0],[-77.6691775,39.6006659,0],[-77.6680255,39.6005039,0],[-77.6666245,39.6002639,0],[-77.6656155,39.6000249,0],[-77.6647265,39.5997799,0],[-77.6636605,39.5994839,0],[-77.6624865,39.5990339,0],[-77.6614525,39.5985979,0],[-77.6605365,39.5981699,0],[-77.6592885,39.5974529,0],[-77.6573905,39.5962859,0],[-77.6556025,39.5951679,0],[-77.6548755,39.5947099,0],[-77.6512895,39.5924499,0],[-77.6503445,39.5918509,0],[-77.6480845,39.5904299,0],[-77.6474745,39.5900599,0],[-77.6458175,39.5890709,0],[-77.6439825,39.5880279,0],[-77.6434025,39.5877179,0],[-77.6428645,39.5874539,0],[-77.6419925,39.5870279,0],[-77.6381425,39.5852479,0],[-77.6365225,39.5845079,0],[-77.6359425,39.5842349,0],[-77.6355625,39.5840499,0],[-77.6350415,39.5837879,0],[-77.6344955,39.5834969,0],[-77.6336125,39.5829379,0],[-77.6328325,39.5824079,0],[-77.6324025,39.5820979,0],[-77.6319025,39.5817179,0],[-77.6311825,39.5810879,0],[-77.6306825,39.5806279,0],[-77.6298835,39.5798439,0],[-77.6287225,39.5786579,0],[-77.6234025,39.5732079,0],[-77.6221295,39.5718839,0],[-77.6206725,39.5703679,0],[-77.6200625,39.5696879,0],[-77.6188925,39.5682479,0],[-77.6179725,39.5669779,0],[-77.6175805,39.5663909,0],[-77.6170725,39.5656279,0],[-77.6104175,39.5551289,0],[-77.6101665,39.5546979,0],[-77.6094335,39.5534379,0],[-77.6091795,39.5528199,0],[-77.6091385,39.5526379,0],[-77.6084605,39.5479319,0],[-77.6063545,39.5426549,0],[-77.6060885,39.5420859,0],[-77.6059265,39.5416279,0],[-77.6057785,39.5410219,0],[-77.6056825,39.5404979,0],[-77.6056455,39.5400839,0],[-77.6056455,39.5394199,0],[-77.6060355,39.5367449,0],[-77.6061165,39.5330869,0],[-77.6024415,39.5240929,0],[-77.5990335,39.5193739,0],[-77.5933065,39.5099079,0],[-77.5930935,39.5095769,0],[-77.5928815,39.5093079,0],[-77.5922825,39.5087419,0],[-77.5921155,39.5086279,0],[-77.5918875,39.5084869,0],[-77.5916325,39.5083389,0],[-77.5913515,39.5081849,0],[-77.5910615,39.5080369,0],[-77.5907465,39.5079169,0],[-77.5904045,39.5078039,0],[-77.5872945,39.5070729,0],[-77.5849245,39.5065169,0],[-77.5846735,39.5064629,0],[-77.5843015,39.5063719,0],[-77.5839595,39.5062649,0],[-77.5835655,39.5061319,0],[-77.5828905,39.5058309,0],[-77.5824425,39.5056229,0],[-77.5820035,39.5053879,0],[-77.5814855,39.5050929,0],[-77.5723385,39.4989629,0],[-77.5704415,39.4976859,0],[-77.5688255,39.4965979,0],[-77.5687405,39.4965389,0],[-77.5679965,39.4960209,0],[-77.5669625,39.4952629,0],[-77.5662945,39.4947449,0],[-77.5658755,39.4944189,0],[-77.5647175,39.4934979,0],[-77.5644285,39.4932679,0],[-77.5605215,39.4901289,0],[-77.5578955,39.4880089,0],[-77.5573775,39.4876219,0],[-77.5569205,39.4873119,0],[-77.5562475,39.4869119,0],[-77.5560955,39.4868219,0],[-77.5557975,39.4866809,0],[-77.5554905,39.4865469,0],[-77.5546315,39.4862259,0],[-77.5539745,39.4860259,0],[-77.5534935,39.4859069,0],[-77.5529685,39.4857869,0],[-77.5523125,39.4856749,0],[-77.5513845,39.4855309,0],[-77.5508505,39.4854499,0],[-77.5463135,39.4847649,0],[-77.5458135,39.4846629,0],[-77.5453915,39.4845609,0],[-77.5450165,39.4844569,0],[-77.5446485,39.4843369,0],[-77.5442105,39.4841759,0],[-77.5437025,39.4839619,0],[-77.5431145,39.4836599,0],[-77.5427965,39.4834919,0],[-77.5426325,39.4834049,0],[-77.5421585,39.4831029,0],[-77.5412835,39.4824499,0],[-77.5390715,39.4804389,0],[-77.5358075,39.4774729,0],[-77.5343215,39.4761249,0],[-77.5337495,39.4756329,0],[-77.5333015,39.4752769,0],[-77.5325375,39.4747119,0],[-77.5310215,39.4736359,0],[-77.5246205,39.4692219,0],[-77.5192685,39.4655379,0],[-77.5154125,39.4628689,0],[-77.5147775,39.4624239,0],[-77.5135375,39.4615529,0],[-77.5128385,39.4609799,0],[-77.5117995,39.4601279,0],[-77.5099975,39.4585989,0],[-77.5093015,39.4580079,0],[-77.5066595,39.4557179,0],[-77.5063655,39.4554349,0],[-77.5061195,39.4551489,0],[-77.5059235,39.4549069,0],[-77.5058375,39.4547819,0],[-77.5054155,39.4540189,0],[-77.5052635,39.4537259,0],[-77.5052595,39.4537169,0],[-77.5050865,39.4533009,0],[-77.5049265,39.4527599,0],[-77.5048315,39.4524359,0],[-77.5044155,39.4508139,0],[-77.5039585,39.4490289,0],[-77.5037605,39.4482559,0],[-77.5035835,39.4476149,0],[-77.5033605,39.4469819,0],[-77.5030435,39.4464419,0],[-77.5026945,39.4459129,0],[-77.5024305,39.4455979,0],[-77.5021485,39.4452809,0],[-77.5017975,39.4449439,0],[-77.5014375,39.4446409,0],[-77.5010515,39.4443789,0],[-77.5007355,39.4441839,0],[-77.5005305,39.4440779,0],[-77.5001835,39.4438989,0],[-77.5001695,39.4438919,0],[-77.4997065,39.4436649,0],[-77.4961775,39.4419699,0],[-77.4952095,39.4415059,0],[-77.4950255,39.4414179,0],[-77.4934465,39.4406599,0],[-77.4933025,39.4405679,0],[-77.4926395,39.4401149,0],[-77.4922965,39.4398599,0],[-77.4919895,39.4395899,0],[-77.4917435,39.4393609,0],[-77.4914705,39.4390909,0],[-77.4911895,39.4387539,0],[-77.4907745,39.4381329,0],[-77.4905535,39.4377819,0],[-77.4903325,39.4374039,0],[-77.4902085,39.4371269,0],[-77.4900755,39.4367549,0],[-77.4898225,39.4359129,0],[-77.4897605,39.4354899,0],[-77.4897145,39.4351469,0],[-77.4896875,39.4349349,0],[-77.4896405,39.4341899,0],[-77.4896555,39.4329829,0],[-77.4896755,39.4314279,0],[-77.4896905,39.4302839,0],[-77.4896775,39.4298239,0],[-77.4895855,39.4290459,0],[-77.4894695,39.4282629,0],[-77.4893925,39.4279329,0],[-77.4890735,39.4268609,0],[-77.4885615,39.4256869,0],[-77.4884215,39.4254059,0],[-77.4883295,39.4252229,0],[-77.4881515,39.4248749,0],[-77.4879215,39.4244829,0],[-77.4875855,39.4239359,0],[-77.4872955,39.4235239,0],[-77.4869165,39.4230389,0],[-77.4867085,39.4228119,0],[-77.4865795,39.4226719,0],[-77.4859615,39.4220319,0],[-77.4859505,39.4220209,0],[-77.4858625,39.4219339,0],[-77.4857355,39.4218099,0],[-77.4855725,39.4216509,0],[-77.4851325,39.4212449,0],[-77.4850145,39.4211399,0],[-77.4847895,39.4209419,0],[-77.4844215,39.4206319,0],[-77.4840785,39.4203949,0],[-77.4826195,39.4194219,0],[-77.4824075,39.4192809,0],[-77.4821015,39.4190869,0],[-77.4817845,39.4189039,0],[-77.4802305,39.4180209,0],[-77.4800715,39.4179219,0],[-77.4796745,39.4176739,0],[-77.4785155,39.4169149,0],[-77.4774515,39.4160759,0],[-77.4764665,39.4151559,0],[-77.4756515,39.4143339,0],[-77.4755205,39.4141719,0],[-77.4749415,39.4134549,0],[-77.4743415,39.4125909,0],[-77.4734335,39.4112029,0],[-77.4729275,39.4104279,0],[-77.4725745,39.4099159,0],[-77.4722225,39.4094709,0],[-77.4718625,39.4090519,0],[-77.4712805,39.4084249,0],[-77.4704305,39.4076699,0],[-77.4701805,39.4074809,0],[-77.4691605,39.4067099,0],[-77.4685015,39.4062899,0],[-77.4681235,39.4060639,0],[-77.4679845,39.4059809,0],[-77.4670135,39.4054659,0],[-77.4664485,39.4052129,0],[-77.4650875,39.4046859,0],[-77.4650535,39.4046749,0],[-77.4644935,39.4044989,0],[-77.4642495,39.4044269,0],[-77.4637845,39.4042909,0],[-77.4626895,39.4040239,0],[-77.4617975,39.4038519,0],[-77.4609245,39.4037289,0],[-77.4589325,39.4035099,0],[-77.4549355,39.4030729,0],[-77.4406647,39.4007299,0],[-77.4398292,39.4004896,0],[-77.439535,39.400312,0]],"type":"LineString"}},{"type":"Feature","properties":{"Name":0.028141652166586015,"Field_1":0.028141652166586,"SHAPE":"PolyLine"},"geometry":{"coordinates":[[-78.2414025,39.9906453,0],[-78.2406947,39.990686,0],[-78.2399827,39.990796,0],[-78.2391877,39.990995,0],[-78.2384297,39.991267,0],[-78.2377897,39.991568,0],[-78.2372357,39.991898,0],[-78.2367187,39.992272,0],[-78.2362487,39.992694,0],[-78.2357417,39.993222,0],[-78.2345217,39.99451,0],[-78.2341097,39.994973,0],[-78.2337557,39.995562,0],[-78.2335647,39.995915,0],[-78.2334677,39.996216,0],[-78.2333457,39.996649,0],[-78.2333157,39.996801,0],[-78.2332867,39.99695,0],[-78.2332697,39.997268,0],[-78.2332677,39.99801,0],[-78.2332887,39.999464,0],[-78.2336307,39.999447,0],[-78.2346887,39.999393,0],[-78.2371457,39.999415,0],[-78.2378967,39.999439,0],[-78.2382107,39.999449,0],[-78.2384187,39.999455,0],[-78.2387447,39.999458,0],[-78.2411787,39.991492,0],[-78.2414025,39.9906453,0]],"type":"LineString"}},{"type":"Feature","properties":{"Name":1.563412990372575,"Field_1":1.56341299037258,"SHAPE":"PolyLine"},"geometry":{"coordinates":[[-77.8616167,40.7944331,0],[-77.8539447,40.8002571,0],[-77.8526197,40.8012491,0],[-77.8522907,40.8014871,0],[-77.8519747,40.8017111,0],[-77.8518397,40.8018041,0],[-77.8514577,40.8020341,0],[-77.8512217,40.8021571,0],[-77.8508857,40.8023051,0],[-77.8507967,40.8023441,0],[-77.8496697,40.8027681,0],[-77.8476567,40.8035121,0],[-77.8436007,40.8049981,0],[-77.8408387,40.8060091,0],[-77.8406987,40.8060601,0],[-77.8399227,40.8063511,0],[-77.8395157,40.8065041,0],[-77.8387927,40.8068051,0],[-77.8381157,40.8071101,0],[-77.8355417,40.8082911,0],[-77.8351637,40.8084681,0],[-77.8341827,40.8089291,0],[-77.8337597,40.8091281,0],[-77.8317957,40.8101121,0],[-77.8314817,40.8102771,0],[-77.8307727,40.8106911,0],[-77.8303307,40.8109581,0],[-77.8298577,40.8112461,0],[-77.8293857,40.8115351,0],[-77.8291147,40.8117041,0],[-77.8314732,40.8145433,0],[-77.8350027,40.8187171,0],[-77.8352457,40.8189891,0],[-77.8355227,40.8192841,0],[-77.8357457,40.8195171,0],[-77.8360177,40.8197861,0],[-77.8362797,40.8200311,0],[-77.8366517,40.8203631,0],[-77.8366887,40.8203961,0],[-77.8368087,40.8204971,0],[-77.8368707,40.8205471,0],[-77.8370017,40.8206431,0],[-77.8380727,40.8214161,0],[-77.8402977,40.8226681,0],[-77.8426427,40.8235621,0],[-77.8443217,40.8241481,0],[-77.8467927,40.8248631,0],[-77.8473727,40.8249791,0],[-77.8507047,40.8256141,0],[-77.8515837,40.8256651,0],[-77.8520257,40.8256781,0],[-77.8525157,40.8256831,0],[-77.8535227,40.8256641,0],[-77.8570187,40.8255321,0],[-77.8585037,40.8252011,0],[-77.8601297,40.8248321,0],[-77.8685007,40.8229181,0],[-77.8788427,40.8205521,0],[-77.8801167,40.8202721,0],[-77.8804727,40.8202101,0],[-77.8814777,40.8200811,0],[-77.8818147,40.8200451,0],[-77.8828927,40.8200001,0],[-77.8829777,40.8199981,0],[-77.8834517,40.8200091,0],[-77.8840217,40.8200401,0],[-77.8846057,40.8200881,0],[-77.8850327,40.8201451,0],[-77.8859897,40.8203061,0],[-77.8879597,40.8206841,0],[-77.8886217,40.8207851,0],[-77.8891797,40.8208521,0],[-77.8898587,40.8209071,0],[-77.8906667,40.8209271,0],[-77.8910867,40.8209261,0],[-77.8914277,40.8209131,0],[-77.8920857,40.8208741,0],[-77.8923857,40.8208481,0],[-77.8927437,40.8208071,0],[-77.8934767,40.8206941,0],[-77.8942287,40.8205681,0],[-77.8944067,40.8205331,0],[-77.9006787,40.8189831,0],[-77.9115547,40.8163301,0],[-77.9122137,40.8161831,0],[-77.9132327,40.8159911,0],[-77.9137407,40.8159151,0],[-77.9142817,40.8158381,0],[-77.9147357,40.8157861,0],[-77.9157467,40.8156931,0],[-77.9163497,40.8156551,0],[-77.9174317,40.8156231,0],[-77.9276777,40.8156561,0],[-77.9282377,40.8156741,0],[-77.9288147,40.8157131,0],[-77.9291007,40.8157421,0],[-77.9299567,40.8158691,0],[-77.9302107,40.8159161,0],[-77.9306707,40.8160171,0],[-77.9335657,40.8167501,0],[-77.9361707,40.8174191,0],[-77.9397937,40.8183961,0],[-77.9408587,40.8187981,0],[-77.9416507,40.8191421,0],[-77.9423537,40.8195611,0],[-77.9563627,40.8280681,0],[-77.9567907,40.8286421,0],[-77.9573877,40.8292901,0],[-77.9582357,40.8301441,0],[-77.9586847,40.8305011,0],[-77.9589027,40.8306271,0],[-77.9598697,40.8311111,0],[-77.9604917,40.8313641,0],[-77.9610097,40.8315251,0],[-77.9618957,40.8317551,0],[-77.9693667,40.8335511,0],[-77.9714847,40.8340461,0],[-77.9722907,40.8341501,0],[-77.9730967,40.8342191,0],[-77.9741607,40.8342641,0],[-77.9753147,40.8341951,0],[-77.9760927,40.8340721,0],[-77.9769107,40.8339081,0],[-77.9776337,40.8337041,0],[-77.9784117,40.8334721,0],[-77.9863397,40.8304431,0],[-77.9961497,40.8265811,0],[-77.9978827,40.8258171,0],[-77.9995467,40.8251761,0],[-78.0030057,40.8240051,0],[-78.0035037,40.8238391,0],[-78.0061367,40.8230341,0],[-78.0087427,40.8222971,0],[-78.0106257,40.8218191,0],[-78.0117757,40.8215171,0],[-78.0128147,40.8212221,0],[-78.0142307,40.8207441,0],[-78.0155077,40.8202481,0],[-78.0164547,40.8198431,0],[-78.0190287,40.8186481,0],[-78.0222097,40.8171501,0],[-78.0251797,40.8157161,0],[-78.0259337,40.8153291,0],[-78.0269167,40.8147501,0],[-78.0278457,40.8141621,0],[-78.0283327,40.8138311,0],[-78.0288107,40.8134631,0],[-78.0301257,40.8125351,0],[-78.0312567,40.8117531,0],[-78.0319177,40.8113671,0],[-78.0324147,40.8111191,0],[-78.0332607,40.8107971,0],[-78.0337477,40.8106411,0],[-78.0346207,40.8104391,0],[-78.0352647,40.8103371,0],[-78.0359817,40.8102821,0],[-78.0365517,40.8102551,0],[-78.0371487,40.8102551,0],[-78.0375577,40.8102771,0],[-78.0387117,40.8104391,0],[-78.0389967,40.8104941,0],[-78.0399987,40.8107701,0],[-78.0408177,40.8109991,0],[-78.0417017,40.8112451,0],[-78.0433527,40.8116021,0],[-78.0441187,40.8117631,0],[-78.0446567,40.8118441,0],[-78.0451937,40.8118841,0],[-78.0455977,40.8118711,0],[-78.0460137,40.8118571,0],[-78.0465247,40.8118171,0],[-78.0469547,40.8117631,0],[-78.0473577,40.8116961,0],[-78.0478687,40.8115881,0],[-78.0563127,40.8096011,0],[-78.0588337,40.8089921,0],[-78.0591407,40.8088941,0],[-78.0598517,40.8086571,0],[-78.0605627,40.8083091,0],[-78.0609537,40.8080861,0],[-78.0613297,40.8078351,0],[-78.0616367,40.8076121,0],[-78.0618147,40.8074581,0],[-78.0619577,40.8073331,0],[-78.0625987,40.8066771,0],[-78.0628237,40.8064081,0],[-78.0631287,40.8057851,0],[-78.0635747,40.8048231,0],[-78.0663117,40.7987031,0],[-78.0670087,40.7970251,0],[-78.0673837,40.7953921,0],[-78.0676617,40.7936791,0],[-78.0677717,40.7918631,0],[-78.0677757,40.7913011,0],[-78.0677567,40.7908591,0],[-78.0677067,40.7902501,0],[-78.0675947,40.7895131,0],[-78.0674257,40.7883771,0],[-78.0672767,40.7872821,0],[-78.0672267,40.7865971,0],[-78.0672737,40.7858141,0],[-78.0673227,40.7854461,0],[-78.0674697,40.7848201,0],[-78.0677397,40.7840471,0],[-78.0680587,40.7833721,0],[-78.0685497,40.7826231,0],[-78.0688077,40.7822671,0],[-78.0690657,40.7819731,0],[-78.0693227,40.7817151,0],[-78.0695557,40.7814821,0],[-78.0705987,40.7806481,0],[-78.0719127,40.7796661,0],[-78.0725017,40.7792361,0],[-78.0728697,40.7789791,0],[-78.0753847,40.7771751,0],[-78.0768697,40.7761071,0],[-78.0804037,40.7735421,0],[-78.0809807,40.7730391,0],[-78.0812997,40.7727201,0],[-78.0816307,40.7723641,0],[-78.0819137,40.7720451,0],[-78.0823307,40.7715181,0],[-78.0827967,40.7709041,0],[-78.0833737,40.7701561,0],[-78.0841957,40.7692231,0],[-78.0850307,40.7683891,0],[-78.0863187,40.7672721,0],[-78.0875577,40.7663641,0],[-78.0902697,40.7643881,0],[-78.0910797,40.7638111,0],[-78.0924177,40.7628791,0],[-78.0938407,40.7618231,0],[-78.0945527,40.7612471,0],[-78.0952277,40.7606701,0],[-78.0958777,40.7600931,0],[-78.0969207,40.7590011,0],[-78.0976817,40.7581301,0],[-78.0988227,40.7567191,0],[-78.1003207,40.7547551,0],[-78.1010687,40.7537611,0],[-78.1025287,40.7518961,0],[-78.1040508,40.7500181,0],[-78.1047868,40.7491471,0],[-78.1055848,40.7483001,0],[-78.1061368,40.7477611,0],[-78.1068488,40.7471351,0],[-78.1074258,40.7466681,0],[-78.1088368,40.7456011,0],[-78.1097078,40.7449991,0],[-78.1111068,40.7441401,0],[-78.1141188,40.7423551,0],[-78.1155208,40.7415741,0],[-78.1183208,40.7399521,0],[-78.1222628,40.7375821,0],[-78.1239298,40.7365711,0],[-78.1248178,40.7360031,0],[-78.1304828,40.7323411,0],[-78.1341098,40.7299861,0],[-78.1378618,40.7276721,0],[-78.1397798,40.7265361,0],[-78.1434898,40.7245351,0],[-78.1452718,40.7236701,0],[-78.1474818,40.7227941,0],[-78.1490348,40.7222521,0],[-78.1503588,40.7218871,0],[-78.1511608,40.7216791,0],[-78.1625108,40.7185631,0],[-78.1696188,40.7176041,0],[-78.1710368,40.7177391,0],[-78.1725478,40.7178121,0],[-78.1736628,40.7177391,0],[-78.1743608,40.7176041,0],[-78.1749758,40.7174271,0],[-78.1758408,40.7171241,0],[-78.1764348,40.7168431,0],[-78.1796448,40.7152901,0],[-78.1825738,40.7138621,0],[-78.1841998,40.7131121,0],[-78.1921418,40.7095471,0],[-78.1950388,40.7082761,0],[-78.1987888,40.7066711,0],[-78.2021908,40.7051001,0],[-78.2029758,40.7047251,0],[-78.2044238,40.7040091,0],[-78.2055988,40.7034071,0],[-78.2060928,40.7031481,0],[-78.2120508,40.6999991,0],[-78.2123338,40.6998391,0],[-78.2124898,40.6997491,0],[-78.2126248,40.6996711,0],[-78.2131088,40.6993751,0],[-78.2135578,40.6990851,0],[-78.2139558,40.6988081,0],[-78.2142468,40.6986001,0],[-78.2145338,40.6983881,0],[-78.2150398,40.6980031,0],[-78.2152088,40.6978661,0],[-78.2154838,40.6976311,0],[-78.2226688,40.6912501,0],[-78.2229128,40.6910311,0],[-78.2230938,40.6908621,0],[-78.2233698,40.6905971,0],[-78.2235538,40.6904131,0],[-78.2238518,40.6901011,0],[-78.2240908,40.6898401,0],[-78.2242678,40.6896451,0],[-78.2243708,40.6895251,0],[-78.2247578,40.6890591,0],[-78.2294268,40.6829921,0],[-78.2297258,40.6825901,0],[-78.2297578,40.6825461,0],[-78.2297888,40.6825021,0],[-78.2299878,40.6822171,0],[-78.2301148,40.6820221,0],[-78.2302848,40.6817461,0],[-78.2304508,40.6814541,0],[-78.2306138,40.6811371,0],[-78.2307778,40.6807691,0],[-78.2309328,40.6804001,0],[-78.2309988,40.6802201,0],[-78.2311158,40.6798631,0],[-78.2314198,40.6789281,0],[-78.2318608,40.6775371,0],[-78.2329888,40.6739961,0],[-78.2331878,40.6734711,0],[-78.2333218,40.6731761,0],[-78.2334408,40.6729371,0],[-78.2335648,40.6727111,0],[-78.2338318,40.6722841,0],[-78.2340578,40.6719551,0],[-78.2342098,40.6717571,0],[-78.2343108,40.6716331,0],[-78.2345118,40.6713901,0],[-78.2348218,40.6710551,0],[-78.2349358,40.6709431,0],[-78.2350728,40.6708111,0],[-78.2432248,40.6629771,0],[-78.2436358,40.6625861,0],[-78.2439968,40.6622611,0],[-78.2443428,40.6619691,0],[-78.2450258,40.6614291,0],[-78.2474548,40.6595571,0],[-78.2531908,40.6551401,0],[-78.2540518,40.6544821,0],[-78.2544238,40.6542071,0],[-78.2549978,40.6537831,0],[-78.2555768,40.6533621,0],[-78.2603278,40.6499221,0],[-78.2613298,40.6492001,0],[-78.2617878,40.6488701,0],[-78.2656138,40.6461161,0],[-78.2663388,40.6456081,0],[-78.2666348,40.6453961,0],[-78.2674658,40.6447881,0],[-78.2685818,40.6439581,0],[-78.2691158,40.6435491,0],[-78.2698968,40.6429341,0],[-78.2702158,40.6426751,0],[-78.2705408,40.6424011,0],[-78.2710828,40.6419281,0],[-78.2712898,40.6417401,0],[-78.2717038,40.6413601,0],[-78.2745068,40.6386951,0],[-78.2749838,40.6382141,0],[-78.2754518,40.6377281,0],[-78.2757588,40.6373891,0],[-78.2762478,40.6368231,0],[-78.2768128,40.6361231,0],[-78.2770428,40.6358081,0],[-78.2790508,40.6329681,0],[-78.2796468,40.6321321,0],[-78.2800048,40.6316331,0],[-78.2803698,40.6311361,0],[-78.2805918,40.6308521,0],[-78.2808208,40.6305701,0],[-78.2811978,40.6301421,0],[-78.2815088,40.6298131,0],[-78.2818768,40.6294381,0],[-78.2823008,40.6290301,0],[-78.2825418,40.6288111,0],[-78.2829928,40.6284321,0],[-78.2835518,40.6279811,0],[-78.2840308,40.6276361,0],[-78.2845938,40.6272511,0],[-78.2848758,40.6270611,0],[-78.2851978,40.6268591,0],[-78.2858508,40.6264741,0],[-78.2871428,40.6257511,0],[-78.2878358,40.6253651,0],[-78.2934968,40.6222291,0],[-78.3001678,40.6185211,0],[-78.3007438,40.6181961,0],[-78.3011058,40.6179851,0],[-78.3014688,40.6177641,0],[-78.3018758,40.6175011,0],[-78.3021518,40.6173171,0],[-78.3024578,40.6171021,0],[-78.3028068,40.6168491,0],[-78.3029998,40.6167021,0],[-78.3032408,40.6165091,0],[-78.3036738,40.6161531,0],[-78.3039058,40.6159571,0],[-78.3041398,40.6157491,0],[-78.3047858,40.6151331,0],[-78.3050108,40.6149091,0],[-78.3052408,40.6146611,0],[-78.3056058,40.6142511,0],[-78.3061468,40.6135891,0],[-78.3062488,40.6134621,0],[-78.3064168,40.6132391,0],[-78.3064858,40.6131451,0],[-78.3069028,40.6125171,0],[-78.3072168,40.6120061,0],[-78.3074818,40.6115561,0],[-78.3121448,40.6036351,0],[-78.3139438,40.6004891,0],[-78.3142938,40.5998741,0],[-78.3144868,40.5995011,0],[-78.3148248,40.5987371,0],[-78.3149618,40.5984061,0],[-78.3150978,40.5980561,0],[-78.3151418,40.5979181,0],[-78.3152538,40.5975651,0],[-78.3153958,40.5970461,0],[-78.3155458,40.5964311,0],[-78.3156418,40.5959291,0],[-78.3157698,40.5950441,0],[-78.3161238,40.5925711,0],[-78.3164638,40.5901111,0],[-78.3169458,40.5865591,0],[-78.3174748,40.5827161,0],[-78.3176798,40.5812891,0],[-78.3176878,40.5812401,0],[-78.3177598,40.5808501,0],[-78.3178448,40.5804161,0],[-78.3179358,40.5799821,0],[-78.3179688,40.5798401,0],[-78.3180318,40.5795691,0],[-78.3181008,40.5792971,0],[-78.3182298,40.5788001,0],[-78.3184358,40.5781191,0],[-78.3187128,40.5772631,0],[-78.3190518,40.5762961,0],[-78.3194468,40.5753301,0],[-78.3197978,40.5745451,0],[-78.3200928,40.5739431,0],[-78.3201128,40.5739031,0],[-78.3206208,40.5729551,0],[-78.3209338,40.5723981,0],[-78.3210848,40.5721541,0],[-78.3216878,40.5711841,0],[-78.3218568,40.5709311,0],[-78.3225528,40.5699391,0],[-78.3231328,40.5691511,0],[-78.3233428,40.5688801,0],[-78.3235458,40.5686241,0],[-78.3241638,40.5678541,0],[-78.3305948,40.5583201,0],[-78.3370768,40.5492971,0],[-78.3376028,40.5487601,0],[-78.3424728,40.5437721,0],[-78.3433498,40.5428711,0],[-78.3463218,40.5398141,0],[-78.3468158,40.5392991,0],[-78.3471698,40.5389121,0],[-78.3474188,40.5386151,0],[-78.3478408,40.5380801,0],[-78.3479988,40.5378651,0],[-78.3481758,40.5376121,0],[-78.3484018,40.5372881,0],[-78.3485808,40.5370161,0],[-78.3487148,40.5368031,0],[-78.3489408,40.5364201,0],[-78.3490838,40.5361701,0],[-78.3491868,40.5359651,0],[-78.3494238,40.5354771,0],[-78.3496498,40.5349851,0],[-78.3497718,40.5346791,0],[-78.3499578,40.5341741,0],[-78.3507108,40.5320931,0],[-78.3515858,40.5296581,0],[-78.3517458,40.5292211,0],[-78.3519378,40.5286981,0],[-78.3521138,40.5282711,0],[-78.3522298,40.5280301,0],[-78.3523458,40.5278171,0],[-78.3526168,40.5273811,0],[-78.3526898,40.5272661,0],[-78.3529028,40.5269661,0],[-78.3531108,40.5267001,0],[-78.3532728,40.5265091,0],[-78.3532848,40.5264951,0],[-78.3534988,40.5262641,0],[-78.3536928,40.5260641,0],[-78.3538018,40.5259591,0],[-78.3540078,40.5257721,0],[-78.3544688,40.5253901,0],[-78.3549708,40.5250401,0],[-78.3558538,40.5244511,0],[-78.3565748,40.5239971,0],[-78.3571738,40.5236221,0],[-78.3574028,40.5234771,0],[-78.3582768,40.5229211,0],[-78.3584178,40.5228301,0],[-78.3586338,40.5226861,0],[-78.3588458,40.5225421,0],[-78.3591948,40.5222931,0],[-78.3594898,40.5220721,0],[-78.3597798,40.5218481,0],[-78.3601638,40.5215351,0],[-78.3605408,40.5212171,0],[-78.3610188,40.5207821,0],[-78.3611908,40.5206181,0],[-78.3616078,40.5202041,0],[-78.3618068,40.5199921,0],[-78.3622758,40.5194801,0],[-78.3625468,40.5191771,0],[-78.3678968,40.5130471,0],[-78.3685918,40.5122441,0],[-78.3691508,40.5115851,0],[-78.3693088,40.5113911,0],[-78.3696948,40.5108951,0],[-78.3698858,40.5106321,0],[-78.3700648,40.5103851,0],[-78.3703638,40.5099551,0],[-78.3706148,40.5095771,0],[-78.3710608,40.5088331,0],[-78.3716708,40.5077141,0],[-78.3718528,40.5073681,0],[-78.3728398,40.505544,0],[-78.3730738,40.505159,0],[-78.3732998,40.504811,0],[-78.3737488,40.504162,0],[-78.3739818,40.503852,0],[-78.3746138,40.503054,0],[-78.3749588,40.502636,0],[-78.3754998,40.502045,0],[-78.3773068,40.500122,0],[-78.3785238,40.498828,0],[-78.3827788,40.494327,0],[-78.3868458,40.490023,0],[-78.3883258,40.488436,0],[-78.3886178,40.488121,0],[-78.3890368,40.487643,0],[-78.3894468,40.487161,0],[-78.3897448,40.486796,0],[-78.3902368,40.486183,0],[-78.3909668,40.485179,0],[-78.3912578,40.484755,0],[-78.3916728,40.484128,0],[-78.3919548,40.48368,0],[-78.3922258,40.483228,0],[-78.3925058,40.482752,0],[-78.3927848,40.482265,0],[-78.3970308,40.474558,0],[-78.3989868,40.470896,0],[-78.3990388,40.4708,0],[-78.3990478,40.470785,0],[-78.3991208,40.470666,0],[-78.3993368,40.470322,0],[-78.3993928,40.470235,0],[-78.3995838,40.46997,0],[-78.3996568,40.469876,0],[-78.3997698,40.469732,0],[-78.3998118,40.469679,0],[-78.3999198,40.469547,0],[-78.4001958,40.469233,0],[-78.4004008,40.469017,0],[-78.4005338,40.468885,0],[-78.4007158,40.468712,0],[-78.4008118,40.468622,0],[-78.4010108,40.468449,0],[-78.4012088,40.468286,0],[-78.4013028,40.46821,0],[-78.4013248,40.468193,0],[-78.4016058,40.467979,0],[-78.4016408,40.467954,0],[-78.4020378,40.467675,0],[-78.4022038,40.467566,0],[-78.4025138,40.467373,0],[-78.4026338,40.467303,0],[-78.4028318,40.467189,0],[-78.4031818,40.467003,0],[-78.4035378,40.466828,0],[-78.4036368,40.466782,0],[-78.4039018,40.466662,0],[-78.4042188,40.466529,0],[-78.4045848,40.466387,0],[-78.4049578,40.466255,0],[-78.4053368,40.466133,0],[-78.4056438,40.466043,0],[-78.4057048,40.466026,0],[-78.4060288,40.465941,0],[-78.4064178,40.465849,0],[-78.4065428,40.465823,0],[-78.4068088,40.465769,0],[-78.4069208,40.465748,0],[-78.4070478,40.465725,0],[-78.4072408,40.465692,0],[-78.4073788,40.46567,0],[-78.4075118,40.465649,0],[-78.4076498,40.465631,0],[-78.4079938,40.465587,0],[-78.4085068,40.465544,0],[-78.4097338,40.465466,0],[-78.4118548,40.465332,0],[-78.4128368,40.465272,0],[-78.4138718,40.46521,0],[-78.4147318,40.465158,0],[-78.4153118,40.465122,0],[-78.4170318,40.465014,0],[-78.4172288,40.464998,0],[-78.4175448,40.464964,0],[-78.4180158,40.464898,0],[-78.4182868,40.464852,0],[-78.4186168,40.464784,0],[-78.4189418,40.464702,0],[-78.4192618,40.464607,0],[-78.4194228,40.464554,0],[-78.4196468,40.464473,0],[-78.4199768,40.464341,0],[-78.4202968,40.464196,0],[-78.4204098,40.46414,0],[-78.4207278,40.463972,0],[-78.4210328,40.463792,0],[-78.4213248,40.463599,0],[-78.4216258,40.463372,0],[-78.4218848,40.463154,0],[-78.4221288,40.462926,0],[-78.4222528,40.462798,0],[-78.4224608,40.462565,0],[-78.4226518,40.462325,0],[-78.4228258,40.462078,0],[-78.4230048,40.461789,0],[-78.4231408,40.461533,0],[-78.4232598,40.461271,0],[-78.4233548,40.461007,0],[-78.4234568,40.46066,0],[-78.4235118,40.460427,0],[-78.4235358,40.460279,0],[-78.4235688,40.459993,0],[-78.4235818,40.459705,0],[-78.4235758,40.459417,0],[-78.4235618,40.45924,0],[-78.4235378,40.45904,0],[-78.4234848,40.458742,0],[-78.4233478,40.458147,0],[-78.4232048,40.457552,0],[-78.4227848,40.45582,0],[-78.4221668,40.453221,0],[-78.4220468,40.452634,0],[-78.4219978,40.452332,0],[-78.4219388,40.451774,0],[-78.4219158,40.451466,0],[-78.4219048,40.451099,0],[-78.4219108,40.450691,0],[-78.4219358,40.450258,0],[-78.4219728,40.449901,0],[-78.4219828,40.449806,0],[-78.4219928,40.449731,0],[-78.4220338,40.44946,0],[-78.4220848,40.449163,0],[-78.4221578,40.448819,0],[-78.4222698,40.448383,0],[-78.4224008,40.447962,0],[-78.4225458,40.447548,0],[-78.4227158,40.447129,0],[-78.4229188,40.446686,0],[-78.4230578,40.446397,0],[-78.4231548,40.446208,0],[-78.4233388,40.445887,0],[-78.4234688,40.445674,0],[-78.4239818,40.444894,0],[-78.4247178,40.443786,0],[-78.4254628,40.442672,0],[-78.4257348,40.442259,0],[-78.4259508,40.441917,0],[-78.4262248,40.441455,0],[-78.4262498,40.441411,0],[-78.4264808,40.440962,0],[-78.4267098,40.440471,0],[-78.4267898,40.44027,0],[-78.4269168,40.439918,0],[-78.4270278,40.439563,0],[-78.4270438,40.439509,0],[-78.4270528,40.439477,0],[-78.4271488,40.439097,0],[-78.4272278,40.438714,0],[-78.4272608,40.438522,0],[-78.4273068,40.438195,0],[-78.4273298,40.437994,0],[-78.4273618,40.437564,0],[-78.4273708,40.437385,0],[-78.4273738,40.437159,0],[-78.4273718,40.436905,0],[-78.4273528,40.436399,0],[-78.4273238,40.436031,0],[-78.4272948,40.435791,0],[-78.4272598,40.435552,0],[-78.4272228,40.43534,0],[-78.4271898,40.435151,0],[-78.4271018,40.434743,0],[-78.4269938,40.434338,0],[-78.4268118,40.433747,0],[-78.4267408,40.433532,0],[-78.4265278,40.43289,0],[-78.4264568,40.432677,0],[-78.4253418,40.429308,0],[-78.4247258,40.427442,0],[-78.4246698,40.427272,0],[-78.4238448,40.424767,0],[-78.4237318,40.424384,0],[-78.4236968,40.424244,0],[-78.4236408,40.424016,0],[-78.4236128,40.423882,0],[-78.4235538,40.423509,0],[-78.4235288,40.423258,0],[-78.4235118,40.422886,0],[-78.4235128,40.422591,0],[-78.4235158,40.422475,0],[-78.4235398,40.422146,0],[-78.4235868,40.421818,0],[-78.4236248,40.421597,0],[-78.4237108,40.421225,0],[-78.4237758,40.421006,0],[-78.4238208,40.420857,0],[-78.4239108,40.420605,0],[-78.4240178,40.420338,0],[-78.4241378,40.420073,0],[-78.4242698,40.419812,0],[-78.4244828,40.419444,0],[-78.4246478,40.419189,0],[-78.4248248,40.418938,0],[-78.4250468,40.418654,0],[-78.4252458,40.418421,0],[-78.4254548,40.418193,0],[-78.4257368,40.417909,0],[-78.4259488,40.417713,0],[-78.4261698,40.417523,0],[-78.4263838,40.417348,0],[-78.4264798,40.417273,0],[-78.4267758,40.417056,0],[-78.4270868,40.416851,0],[-78.4280898,40.416246,0],[-78.4283698,40.416084,0],[-78.4291848,40.415601,0],[-78.4295118,40.4154,0],[-78.4297128,40.41527,0],[-78.4300798,40.415023,0],[-78.4303448,40.414827,0],[-78.4306988,40.414553,0],[-78.4310538,40.41424,0],[-78.4312158,40.414093,0],[-78.4314888,40.41383,0],[-78.4317508,40.41356,0],[-78.4320738,40.413193,0],[-78.4322578,40.412974,0],[-78.4324358,40.412752,0],[-78.4326488,40.412466,0],[-78.4328438,40.412158,0],[-78.4329768,40.411914,0],[-78.4333198,40.411214,0],[-78.4334248,40.410994,0],[-78.4335248,40.410771,0],[-78.4336858,40.410384,0],[-78.4338548,40.409924,0],[-78.4340818,40.40923,0],[-78.4341878,40.408863,0],[-78.4342948,40.408454,0],[-78.4343888,40.408058,0],[-78.4344468,40.407776,0],[-78.4345118,40.407458,0],[-78.4346018,40.406889,0],[-78.4346578,40.406464,0],[-78.4347128,40.405927,0],[-78.4347378,40.405592,0],[-78.4347548,40.405307,0],[-78.4347628,40.405066,0],[-78.4347648,40.404826,0],[-78.4347638,40.404299,0],[-78.4347538,40.404021,0],[-78.4347268,40.403486,0],[-78.4346998,40.403151,0],[-78.4346958,40.403114,0],[-78.4346378,40.402583,0],[-78.4345948,40.402282,0],[-78.4345608,40.402049,0],[-78.4344818,40.401622,0],[-78.4343738,40.401102,0],[-78.4342868,40.400738,0],[-78.4341628,40.400272,0],[-78.4341188,40.400122,0],[-78.4340508,40.399892,0],[-78.4338018,40.39915,0],[-78.4336858,40.398831,0],[-78.4334758,40.398311,0],[-78.4332878,40.397875,0],[-78.4331338,40.397539,0],[-78.4329718,40.397206,0],[-78.4328018,40.396875,0],[-78.4326248,40.396546,0],[-78.4324398,40.396219,0],[-78.4321978,40.39582,0],[-78.4318188,40.395223,0],[-78.4317658,40.395143,0],[-78.4303938,40.393076,0],[-78.4302588,40.392876,0],[-78.4302248,40.392822,0],[-78.4300538,40.39255,0],[-78.4299338,40.392354,0],[-78.4297688,40.392063,0],[-78.4297548,40.392037,0],[-78.4296158,40.391767,0],[-78.4295858,40.391701,0],[-78.4294978,40.391505,0],[-78.4294688,40.39144,0],[-78.4293918,40.391248,0],[-78.4293548,40.391154,0],[-78.4292548,40.390867,0],[-78.4291928,40.390662,0],[-78.4291348,40.390465,0],[-78.4290468,40.390107,0],[-78.4290088,40.389915,0],[-78.4289568,40.389551,0],[-78.4289178,40.38912,0],[-78.4289058,40.388848,0],[-78.4289048,40.388519,0],[-78.4289178,40.388271,0],[-78.4289358,40.38811,0],[-78.4289608,40.387905,0],[-78.4290108,40.38754,0],[-78.4290588,40.387259,0],[-78.4291188,40.386982,0],[-78.4291918,40.386708,0],[-78.4292768,40.386435,0],[-78.4293588,40.386202,0],[-78.4294698,40.38592,0],[-78.4295788,40.385677,0],[-78.4295878,40.385658,0],[-78.4297628,40.3853,0],[-78.4298788,40.38509,0],[-78.4300438,40.384818,0],[-78.4302288,40.384537,0],[-78.4304078,40.384288,0],[-78.4305978,40.384044,0],[-78.4308098,40.383786,0],[-78.4310278,40.383541,0],[-78.4312568,40.383301,0],[-78.4317758,40.382797,0],[-78.4324618,40.38214,0],[-78.4341778,40.380497,0],[-78.4349488,40.37976,0],[-78.4353018,40.379415,0],[-78.4355048,40.379208,0],[-78.4356998,40.378993,0],[-78.4358848,40.378773,0],[-78.4361298,40.378457,0],[-78.4363048,40.378208,0],[-78.4364698,40.377955,0],[-78.4365328,40.377849,0],[-78.4366218,40.377697,0],[-78.4367628,40.377435,0],[-78.4368918,40.37717,0],[-78.4370618,40.376766,0],[-78.4370988,40.376664,0],[-78.4372388,40.37623,0],[-78.4373078,40.375962,0],[-78.4373658,40.375683,0],[-78.4374098,40.37542,0],[-78.4374318,40.375228,0],[-78.4374438,40.375114,0],[-78.4374618,40.374874,0],[-78.4374698,40.3746,0],[-78.4374648,40.374326,0],[-78.4374468,40.374053,0],[-78.4374258,40.373854,0],[-78.4373808,40.37355,0],[-78.4373228,40.373247,0],[-78.4372508,40.372946,0],[-78.4371658,40.372647,0],[-78.4370668,40.372351,0],[-78.4370038,40.372183,0],[-78.4364048,40.370837,0],[-78.4358348,40.369554,0],[-78.4358198,40.36952,0],[-78.4357568,40.369373,0],[-78.4356428,40.369107,0],[-78.4354858,40.36874,0],[-78.4352788,40.368224,0],[-78.4351448,40.367859,0],[-78.4351248,40.367804,0],[-78.4349398,40.367268,0],[-78.4348078,40.366828,0],[-78.4347968,40.366788,0],[-78.4345978,40.366028,0],[-78.4345208,40.365688,0],[-78.4344738,40.365452,0],[-78.4344018,40.365057,0],[-78.4343588,40.364803,0],[-78.4343358,40.364661,0],[-78.4342678,40.364132,0],[-78.4342648,40.364108,0],[-78.4342278,40.363728,0],[-78.4342198,40.363631,0],[-78.4341978,40.363347,0],[-78.4341758,40.362933,0],[-78.4341648,40.362558,0],[-78.4341598,40.362124,0],[-78.4341448,40.360699,0],[-78.4341168,40.35793,0],[-78.4341088,40.357127,0],[-78.4340948,40.355518,0],[-78.4340468,40.350965,0],[-78.4340328,40.3497,0],[-78.4340078,40.347451,0],[-78.4339958,40.347172,0],[-78.4339728,40.34694,0],[-78.4339518,40.346781,0],[-78.4339278,40.346642,0],[-78.4338888,40.346458,0],[-78.4338568,40.346331,0],[-78.4337758,40.34606,0],[-78.4336758,40.345793,0],[-78.4335358,40.345487,0],[-78.4326478,40.343829,0],[-78.4319558,40.342551,0],[-78.4316658,40.34203,0],[-78.4316058,40.341921,0],[-78.4310118,40.34083,0],[-78.4306898,40.340232,0],[-78.4304918,40.339839,0],[-78.4303178,40.339439,0],[-78.4301678,40.339048,0],[-78.4300838,40.338801,0],[-78.4299758,40.338437,0],[-78.4298848,40.338068,0],[-78.4298128,40.337697,0],[-78.4297718,40.337447,0],[-78.4297558,40.337334,0],[-78.4297418,40.337227,0],[-78.4296918,40.33667,0],[-78.4296858,40.336352,0],[-78.4296988,40.335892,0],[-78.4297098,40.33572,0],[-78.4297128,40.335682,0],[-78.4297168,40.335639,0],[-78.4297548,40.335282,0],[-78.4298108,40.334916,0],[-78.4298918,40.334519,0],[-78.4299828,40.334154,0],[-78.4300528,40.333916,0],[-78.4301188,40.333712,0],[-78.4302628,40.333308,0],[-78.4304248,40.332924,0],[-78.4305928,40.332572,0],[-78.4325178,40.328912,0],[-78.4349998,40.324205,0],[-78.4361348,40.322056,0],[-78.4385618,40.31746,0],[-78.4388268,40.31695,0],[-78.4389798,40.316643,0],[-78.4392278,40.316123,0],[-78.4395538,40.315391,0],[-78.4396408,40.315187,0],[-78.4398058,40.314778,0],[-78.4400158,40.314246,0],[-78.4401798,40.313805,0],[-78.4404278,40.31305,0],[-78.4405798,40.312551,0],[-78.4406528,40.312308,0],[-78.4407128,40.312098,0],[-78.4408138,40.311729,0],[-78.4409618,40.311141,0],[-78.4410448,40.310781,0],[-78.4410978,40.31055,0],[-78.4417468,40.307381,0],[-78.4425788,40.303314,0],[-78.4430728,40.300923,0],[-78.4430818,40.30088,0],[-78.4432668,40.300011,0],[-78.4433468,40.299663,0],[-78.4433948,40.29946,0],[-78.4435328,40.298907,0],[-78.4437818,40.297952,0],[-78.4439008,40.297523,0],[-78.4441478,40.296668,0],[-78.4444358,40.295752,0],[-78.4448988,40.294302,0],[-78.4482198,40.28513,0],[-78.4515498,40.275926,0],[-78.4525798,40.273075,0],[-78.4532178,40.271307,0],[-78.4544828,40.267794,0],[-78.4550268,40.266225,0],[-78.4557448,40.264096,0],[-78.4558388,40.263774,0],[-78.4559608,40.263352,0],[-78.4567578,40.260155,0],[-78.4582328,40.251404,0],[-78.4582998,40.251151,0],[-78.4602778,40.243697,0],[-78.4607908,40.241783,0],[-78.4618408,40.237871,0],[-78.4623758,40.236129,0],[-78.4629168,40.234683,0],[-78.4635978,40.233162,0],[-78.4643998,40.231628,0],[-78.4651728,40.230216,0],[-78.4743128,40.213545,0],[-78.4753918,40.21165,0],[-78.4767968,40.209319,0],[-78.4780258,40.207423,0],[-78.4781178,40.207282,0],[-78.4797098,40.204975,0],[-78.4811288,40.202965,0],[-78.4824938,40.201036,0],[-78.4829428,40.20042,0],[-78.4841348,40.198578,0],[-78.4850518,40.197024,0],[-78.4855848,40.196119,0],[-78.4867038,40.194008,0],[-78.4868188,40.193766,0],[-78.4877208,40.191856,0],[-78.4880258,40.191106,0],[-78.4884168,40.190027,0],[-78.4886688,40.189164,0],[-78.4892998,40.186955,0],[-78.4896248,40.185792,0],[-78.4909128,40.181151,0],[-78.4919318,40.177444,0],[-78.4926238,40.174984,0],[-78.4926948,40.17474,0],[-78.4929828,40.173764,0],[-78.4931678,40.173201,0],[-78.4939398,40.170983,0],[-78.4945308,40.169541,0],[-78.4951238,40.168149,0],[-78.4955768,40.167171,0],[-78.4959838,40.16635,0],[-78.4960278,40.166262,0],[-78.4968248,40.16471,0],[-78.4976298,40.163246,0],[-78.4986398,40.161547,0],[-78.4992778,40.160544,0],[-78.4998308,40.159711,0],[-78.5000348,40.159405,0],[-78.5002008,40.159166,0],[-78.5007408,40.158392,0],[-78.5016728,40.157113,0],[-78.5024278,40.156136,0],[-78.5033878,40.15494,0],[-78.5039378,40.154265,0],[-78.5048548,40.153191,0],[-78.5058508,40.152038,0],[-78.5063468,40.15148,0],[-78.5068148,40.150941,0],[-78.5072838,40.150383,0],[-78.5075798,40.150014,0],[-78.5081478,40.149282,0],[-78.5085758,40.148695,0],[-78.5089758,40.148122,0],[-78.5093708,40.147517,0],[-78.5097948,40.146829,0],[-78.5099128,40.146632,0],[-78.5100278,40.146434,0],[-78.5105178,40.145557,0],[-78.5128298,40.141043,0],[-78.5157488,40.135343,0],[-78.5163958,40.134041,0],[-78.5166578,40.133445,0],[-78.5169318,40.132712,0],[-78.5171078,40.132175,0],[-78.5172748,40.13155,0],[-78.5174598,40.13074,0],[-78.5194838,40.121689,0],[-78.5204358,40.117502,0],[-78.5205588,40.117018,0],[-78.5206868,40.116623,0],[-78.5208548,40.116205,0],[-78.5210418,40.115797,0],[-78.5212288,40.115424,0],[-78.5213218,40.115267,0],[-78.5216498,40.11474,0],[-78.5218308,40.114474,0],[-78.5220778,40.114153,0],[-78.5222838,40.113899,0],[-78.5228338,40.113308,0],[-78.5233448,40.112818,0],[-78.5236398,40.112564,0],[-78.5251418,40.111347,0],[-78.5255688,40.110962,0],[-78.5258148,40.110707,0],[-78.5259008,40.110617,0],[-78.5264178,40.110014,0],[-78.5267008,40.109646,0],[-78.5267898,40.109506,0],[-78.5269978,40.109178,0],[-78.5273208,40.108609,0],[-78.5274878,40.108253,0],[-78.5276338,40.107886,0],[-78.5277748,40.107505,0],[-78.5278808,40.107137,0],[-78.5279718,40.106772,0],[-78.5280458,40.106352,0],[-78.5281088,40.105783,0],[-78.5290228,40.095573,0],[-78.5293918,40.091303,0],[-78.5294258,40.090663,0],[-78.5294238,40.09019,0],[-78.5294228,40.090078,0],[-78.5294068,40.089667,0],[-78.5293868,40.089311,0],[-78.5293448,40.088911,0],[-78.5291348,40.087228,0],[-78.5290758,40.08676,0],[-78.5288178,40.084722,0],[-78.5287158,40.084093,0],[-78.5285648,40.083368,0],[-78.5284078,40.082789,0],[-78.5281688,40.082098,0],[-78.5280288,40.081733,0],[-78.5279858,40.081622,0],[-78.5277658,40.081105,0],[-78.5274668,40.080509,0],[-78.5271268,40.079889,0],[-78.5268168,40.079379,0],[-78.5264878,40.078892,0],[-78.5260828,40.078353,0],[-78.5257008,40.077863,0],[-78.5253708,40.077487,0],[-78.5250698,40.077154,0],[-78.5246388,40.076709,0],[-78.5239158,40.07599,0],[-78.5230918,40.075165,0],[-78.5204978,40.072559,0],[-78.5201058,40.072158,0],[-78.5197848,40.071796,0],[-78.5197138,40.071711,0],[-78.5195168,40.071472,0],[-78.5190908,40.070898,0],[-78.5188268,40.070506,0],[-78.5187668,40.070403,0],[-78.5185618,40.070048,0],[-78.5183168,40.069558,0],[-78.5181128,40.069091,0],[-78.5178908,40.068484,0],[-78.5177478,40.067972,0],[-78.5176298,40.06743,0],[-78.5176048,40.067283,0],[-78.5175468,40.06682,0],[-78.5175158,40.066471,0],[-78.5175038,40.066043,0],[-78.5175168,40.065442,0],[-78.5175398,40.064802,0],[-78.5176468,40.062496,0],[-78.5177378,40.060546,0],[-78.515659,40.0559717,0],[-78.5109647,40.0523248,0],[-78.5103658,40.049149,0],[-78.5059038,40.044047,0],[-78.5026288,40.039032,0],[-78.4960478,40.032777,0],[-78.4957688,40.032515,0],[-78.4949978,40.031862,0],[-78.4945748,40.031565,0],[-78.4943788,40.031433,0],[-78.4938588,40.031129,0],[-78.4934098,40.030897,0],[-78.4931078,40.030756,0],[-78.4920038,40.030291,0],[-78.4912308,40.029968,0],[-78.4904968,40.029664,0],[-78.4883178,40.02876,0],[-78.4873038,40.028283,0],[-78.4863768,40.027785,0],[-78.4855588,40.027303,0],[-78.4845968,40.026664,0],[-78.4840298,40.026246,0],[-78.4834988,40.025826,0],[-78.4824008,40.024956,0],[-78.4815588,40.02428,0],[-78.4814318,40.024178,0],[-78.4734088,40.017732,0],[-78.4724838,40.016851,0],[-78.4716348,40.015916,0],[-78.4704988,40.014613,0],[-78.4700978,40.014212,0],[-78.4696418,40.013854,0],[-78.4686698,40.013213,0],[-78.4679298,40.01282,0],[-78.4676348,40.012676,0],[-78.4672478,40.012506,0],[-78.4668668,40.012353,0],[-78.4664228,40.012199,0],[-78.4661298,40.012107,0],[-78.4653818,40.011909,0],[-78.4648738,40.0118,0],[-78.4644738,40.01173,0],[-78.4640918,40.011674,0],[-78.4636968,40.01163,0],[-78.4634108,40.011607,0],[-78.4628638,40.011583,0],[-78.4625358,40.011576,0],[-78.4610478,40.011581,0],[-78.4471538,40.011634,0],[-78.4468688,40.011636,0],[-78.4458158,40.011637,0],[-78.4454908,40.01163,0],[-78.4449628,40.011597,0],[-78.4444788,40.01154,0],[-78.4441728,40.01149,0],[-78.4437398,40.011399,0],[-78.4434468,40.011329,0],[-78.4429128,40.011158,0],[-78.4426288,40.011049,0],[-78.4422718,40.010896,0],[-78.4420058,40.010769,0],[-78.4416498,40.010572,0],[-78.4413998,40.010425,0],[-78.4411578,40.010264,0],[-78.4408208,40.010029,0],[-78.4404248,40.009741,0],[-78.4396868,40.009193,0],[-78.4381788,40.008072,0],[-78.4333348,40.004493,0],[-78.4328948,40.004182,0],[-78.4326628,40.004038,0],[-78.4324008,40.003882,0],[-78.4320618,40.003699,0],[-78.4317968,40.003566,0],[-78.4314098,40.003407,0],[-78.4310178,40.003262,0],[-78.4305968,40.003129,0],[-78.4301588,40.003021,0],[-78.4297238,40.00293,0],[-78.4292398,40.002857,0],[-78.4288338,40.002813,0],[-78.4285198,40.002788,0],[-78.4279658,40.002778,0],[-78.4276818,40.002789,0],[-78.4271578,40.002823,0],[-78.4262418,40.002923,0],[-78.4232018,40.003294,0],[-78.4171808,40.004046,0],[-78.4165718,40.004159,0],[-78.4161958,40.004243,0],[-78.4157438,40.004374,0],[-78.4153598,40.00449,0],[-78.4149168,40.004666,0],[-78.4144848,40.004873,0],[-78.4140928,40.005071,0],[-78.4137788,40.005254,0],[-78.4134348,40.005468,0],[-78.4132258,40.005606,0],[-78.4131468,40.005659,0],[-78.4128408,40.005898,0],[-78.4125768,40.006129,0],[-78.4123828,40.006311,0],[-78.4120058,40.0067,0],[-78.4118238,40.006914,0],[-78.4116408,40.007164,0],[-78.4114878,40.007394,0],[-78.4112948,40.007713,0],[-78.4109378,40.008396,0],[-78.4105118,40.00923,0],[-78.4104448,40.009348,0],[-78.4102278,40.009728,0],[-78.4099718,40.0101,0],[-78.4097358,40.010392,0],[-78.4094018,40.010744,0],[-78.4090938,40.01103,0],[-78.4087288,40.011298,0],[-78.4083708,40.011545,0],[-78.4078528,40.011836,0],[-78.4074868,40.012022,0],[-78.4072198,40.012137,0],[-78.4069018,40.012256,0],[-78.4065528,40.012366,0],[-78.4062128,40.012461,0],[-78.4058048,40.012559,0],[-78.4054568,40.012621,0],[-78.4050948,40.01267,0],[-78.4047578,40.012709,0],[-78.4044668,40.012727,0],[-78.4044458,40.012728,0],[-78.4041568,40.012738,0],[-78.4037118,40.012737,0],[-78.4034538,40.012727,0],[-78.4030788,40.012686,0],[-78.4026348,40.012626,0],[-78.4022848,40.012563,0],[-78.4020078,40.012505,0],[-78.3931558,40.010647,0],[-78.3853658,40.006899,0],[-78.3847158,40.00648,0],[-78.3825028,40.005058,0],[-78.3822008,40.004866,0],[-78.3818578,40.004659,0],[-78.3815108,40.004468,0],[-78.3813598,40.00439,0],[-78.3811718,40.004293,0],[-78.3808788,40.004156,0],[-78.3807078,40.00408,0],[-78.3806458,40.004053,0],[-78.3803018,40.003909,0],[-78.3800328,40.003805,0],[-78.3796788,40.003677,0],[-78.3793698,40.003577,0],[-78.3789848,40.003461,0],[-78.3785998,40.003357,0],[-78.3780458,40.003226,0],[-78.3777308,40.003162,0],[-78.3776468,40.003145,0],[-78.3772328,40.003073,0],[-78.3769388,40.003031,0],[-78.3765288,40.002982,0],[-78.3762638,40.002957,0],[-78.3742858,40.00278,0],[-78.3730478,40.002669,0],[-78.3672388,40.002148,0],[-78.3667928,40.002098,0],[-78.3663848,40.002044,0],[-78.3660988,40.002001,0],[-78.3658288,40.001951,0],[-78.3654078,40.001873,0],[-78.3647398,40.001717,0],[-78.3644368,40.001642,0],[-78.3639408,40.001511,0],[-78.3617668,40.000935,0],[-78.3611108,40.000765,0],[-78.3609028,40.000715,0],[-78.3608718,40.000708,0],[-78.3603778,40.000606,0],[-78.3598618,40.000515,0],[-78.3594418,40.000461,0],[-78.3590128,40.00042,0],[-78.3586108,40.000394,0],[-78.3582978,40.000382,0],[-78.3580258,40.000376,0],[-78.3576188,40.00038,0],[-78.3571908,40.000399,0],[-78.3563408,40.000471,0],[-78.3529018,40.000832,0],[-78.3515678,40.000973,0],[-78.3508358,40.00105,0],[-78.3502748,40.001104,0],[-78.3497518,40.001137,0],[-78.3494638,40.001144,0],[-78.3489828,40.001136,0],[-78.3485178,40.00111,0],[-78.3480988,40.001068,0],[-78.3476988,40.001012,0],[-78.3473658,40.000953,0],[-78.3470188,40.000883,0],[-78.3457458,40.000601,0],[-78.3418518,39.999737,0],[-78.3397758,39.99925,0],[-78.3395138,39.999183,0],[-78.3393088,39.999124,0],[-78.3389908,39.999019,0],[-78.3387028,39.998907,0],[-78.3384198,39.998788,0],[-78.3382648,39.998718,0],[-78.3379898,39.998576,0],[-78.3244768,39.993217,0],[-78.3156738,39.990339,0],[-78.3074558,39.988724,0],[-78.2998168,39.986093,0],[-78.2894548,39.984152,0],[-78.2882508,39.983665,0],[-78.2877558,39.983492,0],[-78.2872828,39.983327,0],[-78.2869808,39.98325,0],[-78.2862208,39.983072,0],[-78.2853708,39.982941,0],[-78.2842728,39.982851,0],[-78.2830638,39.982831,0],[-78.2783188,39.982786,0],[-78.2775588,39.982796,0],[-78.2766108,39.982855,0],[-78.2757428,39.982957,0],[-78.2748918,39.983086,0],[-78.2741268,39.983268,0],[-78.2736668,39.98338,0],[-78.2613137,39.986789,0],[-78.2546717,39.988835,0],[-78.2536247,39.989153,0],[-78.2514327,39.989745,0],[-78.2505487,39.989934,0],[-78.2493177,39.990185,0],[-78.2485777,39.990315,0],[-78.2474347,39.990422,0],[-78.2462827,39.990469,0],[-78.2414025,39.9906453,0]],"type":"LineString"}},{"type":"Feature","properties":{"Name":0.03574061487401521,"Field_1":0.0357406148740152,"SHAPE":"PolyLine"},"geometry":{"coordinates":[[-77.4497902,38.9454579,0],[-77.4496472,38.9554411,0],[-77.4469602,38.9557709,0],[-77.4454617,38.955859,0],[-77.4442114,38.9580688,0],[-77.4441584,38.9589818,0],[-77.4440924,38.9592228,0],[-77.4440254,38.9594138,0],[-77.4439234,38.9596478,0],[-77.4438024,38.9598758,0],[-77.4437744,38.9599198,0],[-77.4435414,38.9602388,0],[-77.4434504,38.9603608,0],[-77.4432654,38.9605598,0],[-77.4431844,38.9606368,0],[-77.4430424,38.9607568,0],[-77.4427144,38.9609988,0],[-77.4422124,38.9613268,0],[-77.4419834,38.9614458,0],[-77.4418784,38.9614958,0],[-77.4416454,38.9616028,0],[-77.4414544,38.9616838,0],[-77.4412084,38.9617798,0],[-77.4409574,38.9618658,0],[-77.4407024,38.9619458,0],[-77.4403934,38.9620318,0],[-77.4401604,38.9620848,0],[-77.4397514,38.9621648,0],[-77.4393994,38.9622168,0],[-77.4390554,38.9622528,0],[-77.4384834,38.9622968,0],[-77.4379574,38.9623248,0],[-77.4373874,38.9623418,0],[-77.4369604,38.9623448,0],[-77.4274184,38.9624065,0]],"type":"LineString"}}]}