{"type":"FeatureCollection","features":[{"type":"Feature","id":"34","properties":{"name":"New Jersey","density":1189},"geometry":{"type":"Polygon","coordinates":[[[-74.236547,41.14083],[-73.902454,40.998429],[-74.022947,40.708151],[-74.187255,40.642428],[-74.274886,40.489074],[-74.001039,40.412397],[-73.979131,40.297381],[-74.099624,39.760641],[-74.411809,39.360824],[-74.614456,39.245808],[-74.795195,38.993869],[-74.888303,39.158177],[-75.178581,39.240331],[-75.534582,39.459409],[-75.55649,39.607286],[-75.561967,39.629194],[-75.507197,39.683964],[-75.414089,39.804456],[-75.145719,39.88661],[-75.129289,39.963288],[-74.82258,40.127596],[-74.773287,40.215227],[-75.058088,40.417874],[-75.069042,40.543843],[-75.195012,40.576705],[-75.205966,40.691721],[-75.052611,40.866983],[-75.134765,40.971045],[-74.882826,41.179168],[-74.828057,41.288707],[-74.69661,41.359907],[-74.236547,41.14083]]]}},{"type":"Feature","id":"36","properties":{"name":"New York","density":412.3},"geometry":{"type":"Polygon","coordinates":[[[-73.343806,45.013027],[-73.332852,44.804903],[-73.387622,44.618687],[-73.294514,44.437948],[-73.321898,44.246255],[-73.436914,44.043608],[-73.349283,43.769761],[-73.404052,43.687607],[-73.245221,43.523299],[-73.278083,42.833204],[-73.267129,42.745573],[-73.508114,42.08834],[-73.486206,42.050002],[-73.55193,41.294184],[-73.48073,41.21203],[-73.727192,41.102491],[-73.655992,40.987475],[-73.22879,40.905321],[-73.141159,40.965568],[-72.774204,40.965568],[-72.587988,40.998429],[-72.28128,41.157261],[-72.259372,41.042245],[-72.100541,40.992952],[-72.467496,40.845075],[-73.239744,40.625997],[-73.562884,40.582182],[-73.776484,40.593136],[-73.935316,40.543843],[-74.022947,40.708151],[-73.902454,40.998429],[-74.236547,41.14083],[-74.69661,41.359907],[-74.740426,41.431108],[-74.89378,41.436584],[-75.074519,41.60637],[-75.052611,41.754247],[-75.173104,41.869263],[-75.249781,41.863786],[-75.35932,42.000709],[-79.76278,42.000709],[-79.76278,42.252649],[-79.76278,42.269079],[-79.149363,42.55388],[-79.050778,42.690804],[-78.853608,42.783912],[-78.930285,42.953697],[-79.012439,42.986559],[-79.072686,43.260406],[-78.486653,43.375421],[-77.966344,43.369944],[-77.75822,43.34256],[-77.533665,43.233021],[-77.391265,43.276836],[-76.958587,43.271359],[-76.695693,43.34256],[-76.41637,43.523299],[-76.235631,43.528776],[-76.230154,43.802623],[-76.137046,43.961454],[-76.3616,44.070993],[-76.312308,44.196962],[-75.912491,44.366748],[-75.764614,44.514625],[-75.282643,44.848718],[-74.828057,45.018503],[-74.148916,44.991119],[-73.343806,45.013027]]]}},{"type":"Feature","id":"42","properties":{"name":"Pennsylvania","density":284.3},"geometry":{"type":"Polygon","coordinates":[[[-79.76278,42.252649],[-79.76278,42.000709],[-75.35932,42.000709],[-75.249781,41.863786],[-75.173104,41.869263],[-75.052611,41.754247],[-75.074519,41.60637],[-74.89378,41.436584],[-74.740426,41.431108],[-74.69661,41.359907],[-74.828057,41.288707],[-74.882826,41.179168],[-75.134765,40.971045],[-75.052611,40.866983],[-75.205966,40.691721],[-75.195012,40.576705],[-75.069042,40.543843],[-75.058088,40.417874],[-74.773287,40.215227],[-74.82258,40.127596],[-75.129289,39.963288],[-75.145719,39.88661],[-75.414089,39.804456],[-75.616736,39.831841],[-75.786521,39.722302],[-79.477979,39.722302],[-80.518598,39.722302],[-80.518598,40.636951],[-80.518598,41.978802],[-80.518598,41.978802],[-80.332382,42.033571],[-79.76278,42.269079],[-79.76278,42.252649]]]}}]}
